color,id,initial_x,initial_y,label,x,y,parent_code,parent_code_hierarchy,parent_level,parent_naics_id,parent_naics_id_hierarchy,category,parent_parent_code,parent_parent_id
#77C898,111110,188.49595079022606,539.3076811310369,Soybean Farming,2.5,238.16689393250095,185.1646021629426,N,N,1,5,5,Natural resources and mining,,
#77C898,111120,187.14141626948356,531.4449803000524,Oilseed (except Soybean) Farming ,2.5,236.62839377936945,176.64665452568408,N,N,1,5,5,Natural resources and mining,,
#77C898,111130,170.0267571385822,535.7757522468796,Dry Pea and Bean Farming ,2.5,214.6478383161604,181.44424426459653,N,N,1,5,5,Natural resources and mining,,
#77C898,111140,222.271039594675,560.5210719851061,Wheat Farming,2.5,272.3562969677513,205.12633415679826,N,N,1,5,5,Natural resources and mining,,
#77C898,111150,197.97801916685944,542.7337628682735,Corn Farming ,2.5,250.30858040841727,189.066987594977,N,N,1,5,5,Natural resources and mining,,
#77C898,111160,206.60039914483767,566.1337243988132,Rice Farming,2.5,255.89282292348284,215.0773170440251,N,N,1,5,5,Natural resources and mining,,
#77C898,111199,242.84590349799572,559.2640210615399,All Other Grain Farming ,2.5,294.353123743768,204.11665992687944,N,N,1,5,5,Natural resources and mining,,
#77C898,111211,191.57721634246093,561.1315775607648,Potato Farming ,2.5,238.58852204702103,211.59583410442852,N,N,1,5,5,Natural resources and mining,,
#77C898,111219,230.8814064112048,562.9979232002638,Other Vegetable (except Potato) and Melon Farming ,2.5,281.5526029720674,209.78124997742944,N,N,1,5,5,Natural resources and mining,,
#77C898,111310,180.08199941727787,548.7112131842086,Orange Groves,2.5,226.39472315110376,199.34908858716588,N,N,1,5,5,Natural resources and mining,,
#77C898,111320,209.2897642235123,574.9818360571171,Citrus (except Orange) Groves ,2.5,258.2203913372464,226.21613826594412,N,N,1,5,5,Natural resources and mining,,
#77C898,111331,171.96090806245434,545.1235439822011,Apple Orchards ,2.5,217.96053955747072,193.00409809925483,N,N,1,5,5,Natural resources and mining,,
#77C898,111332,234.6631475328191,554.442731956356,Grape Vineyards ,2.5,283.55939918473354,200.32608908776842,N,N,1,5,5,Natural resources and mining,,
#77C898,111333,179.8710307532017,539.388562158001,Strawberry Farming ,2.5,229.40829421502846,185.8839332873923,N,N,1,5,5,Natural resources and mining,,
#77C898,111334,214.4253164647403,567.0479119848263,Berry (except Strawberry) Farming ,2.5,265.004966315817,212.4349125758497,N,N,1,5,5,Natural resources and mining,,
#77C898,111335,197.23283755498483,552.2009206941524,Tree Nut Farming ,2.5,248.62152438782513,197.6582442154598,N,N,1,5,5,Natural resources and mining,,
#77C898,111336,229.114672133114,572.2973419307397,Fruit and Tree Nut Combination Farming ,2.5,279.4604822901392,223.01867508996116,N,N,1,5,5,Natural resources and mining,,
#77C898,111339,220.78116928805855,571.9710986746851,Other Noncitrus Fruit Farming ,2.5,269.2594108138356,222.73035110121742,N,N,1,5,5,Natural resources and mining,,
#77C898,111411,186.74739923105508,555.5485691917916,Mushroom Production ,2.5,235.14899533202788,205.1615976539337,N,N,1,5,5,Natural resources and mining,,
#77C898,111419,210.06511267152536,535.763329373006,Other Food Crops Grown Under Cover ,2.5,260.1248520464862,183.6505560685568,N,N,1,5,5,Natural resources and mining,,
#77C898,111421,245.24773629879007,569.4629999303305,Nursery and Tree Production ,2.5,296.51194677484256,217.32127853755674,N,N,1,5,5,Natural resources and mining,,
#77C898,111422,285.8333147172478,553.944124468343,Floriculture Production ,2.5,334.6725593579742,202.62278393013466,N,N,1,5,5,Natural resources and mining,,
#77C898,111910,196.09949441402617,568.6044293208013,Tobacco Farming,2.5,244.5216241989238,219.47913277598613,N,N,1,5,5,Natural resources and mining,,
#77C898,111920,178.13939895377166,529.6756182200702,Cotton Farming,2.5,225.67703669094925,172.75241313439895,N,N,1,5,5,Natural resources and mining,,
#77C898,111930,213.47295085566014,558.5799109583004,Sugarcane Farming,2.5,264.0569812874004,200.97676859782925,N,N,1,5,5,Natural resources and mining,,
#77C898,111940,195.72691285333886,533.3974477434216,Hay Farming ,2.5,246.96097256459544,178.96036629854592,N,N,1,5,5,Natural resources and mining,,
#77C898,111991,201.735657567641,560.6338089989778,Sugar Beet Farming ,2.5,252.36791266057242,208.56654354868252,N,N,1,5,5,Natural resources and mining,,
#77C898,111992,189.61082070209633,545.9566212024592,Peanut Farming ,2.5,238.35220771536285,191.81203607901352,N,N,1,5,5,Natural resources and mining,,
#77C898,111998,251.26822949538555,563.3308325581909,All Other Miscellaneous Crop Farming ,2.5,302.23103193808305,209.1415202783511,N,N,1,5,5,Natural resources and mining,,
#77C898,112111,210.76950577590864,524.2015328676306,Beef Cattle Ranching and Farming ,2.5,259.3393122227733,171.11834116413712,N,N,1,5,5,Natural resources and mining,,
#77C898,112112,222.8009289759816,536.0640138365115,Cattle Feedlots ,2.5,270.647089901484,185.2745068852338,N,N,1,5,5,Natural resources and mining,,
#77C898,112120,249.54071969434222,543.9401654838646,Dairy Cattle and Milk Production,2.5,299.3750833066773,193.48434403504947,N,N,1,5,5,Natural resources and mining,,
#77C898,112210,232.20411760194335,538.9410865698723,Hog and Pig Farming ,2.5,281.1135249958924,185.38859441352267,N,N,1,5,5,Natural resources and mining,,
#77C898,112310,223.8067559833318,510.0730695358644,Chicken Egg Production ,2.5,272.56093000537174,153.48524299096107,N,N,1,5,5,Natural resources and mining,,
#77C898,112320,228.2123521500962,522.7297279655629,Broilers and Other Meat Type Chicken Production ,2.5,279.0456225930458,171.4898637152955,N,N,1,5,5,Natural resources and mining,,
#77C898,112330,219.04409986532502,518.8401804446881,Turkey Production,2.5,268.24040785936216,166.23432179076428,N,N,1,5,5,Natural resources and mining,,
#77C898,112340,241.2144500248429,522.9710894067837,Poultry Hatcheries,2.5,290.7058538931555,169.13382145094053,N,N,1,5,5,Natural resources and mining,,
#77C898,112390,250.8325530693117,524.531716850002,Other Poultry Production ,2.5,302.4521070081633,167.65911006995162,N,N,1,5,5,Natural resources and mining,,
#77C898,112410,242.29794447487527,537.4790587727543,Sheep Farming,2.5,292.7834573649749,182.94024337921783,N,N,1,5,5,Natural resources and mining,,
#77C898,112420,204.46933278564194,516.4588591826333,Goat Farming,2.5,254.968389742906,159.2744112583614,N,N,1,5,5,Natural resources and mining,,
#77C898,112511,294.467077083263,532.9884325159768,Finfish Farming and Fish Hatcheries ,2.5,344.49629535625377,176.95210385182386,N,N,1,5,5,Natural resources and mining,,
#77C898,112512,268.571963631442,498.11136971422326,Shellfish Farming ,2.5,317.5098336302943,144.27661954696813,N,N,1,5,5,Natural resources and mining,,
#77C898,112519,284.7159868223644,536.4181505173881,Other Aquaculture ,2.5,334.12196249311955,181.6484912602143,N,N,1,5,5,Natural resources and mining,,
#77C898,112910,192.79386593825717,521.1549391923006,Apiculture,2.5,241.45151223836808,165.21042671504657,N,N,1,5,5,Natural resources and mining,,
#77C898,112920,253.48332971165954,534.2600124804494,Horses and Other Equine Production,2.5,305.47873347134475,182.24496932209075,N,N,1,5,5,Natural resources and mining,,
#77C898,112930,234.94630922904642,515.4943474908636,Fur-Bearing Animal and Rabbit Production,2.5,284.6399877675663,159.2946572481725,N,N,1,5,5,Natural resources and mining,,
#77C898,112990,261.2388562582111,550.5832735978354,All Other Animal Production ,2.5,311.3625663473422,198.5970606805647,N,N,1,5,5,Natural resources and mining,,
#77C898,113110,295.7510399425441,592.8877050668508,Timber Tract Operations,2.5,344.7397056858845,242.20010012892027,N,N,1,5,5,Natural resources and mining,,
#77C898,113210,287.0027168556712,573.758868185558,Forest Nurseries and Gathering of Forest Products ,2.5,336.527867395484,221.9238378092207,N,N,1,5,5,Natural resources and mining,,
#77C898,113310,362.8267003063297,684.8321025962243,Logging ,2.5,411.20531588423347,331.00262281224764,N,N,1,5,5,Natural resources and mining,,
#77C898,114111,304.18824762213035,531.460839268074,Finfish Fishing ,2.5,356.4919612721446,180.5075282326507,N,N,1,5,5,Natural resources and mining,,
#77C898,114112,279.75167978705196,506.22096489867516,Shellfish Fishing ,2.5,328.48004109316247,153.92668588308035,N,N,1,5,5,Natural resources and mining,,
#77C898,114119,308.35099548215555,522.2157345654656,Other Marine Fishing ,2.5,357.1332083801367,167.09116017037573,N,N,1,5,5,Natural resources and mining,,
#77C898,114210,290.2471915223364,545.1074440868639,Hunting and Trapping,2.5,341.9287079309759,192.6420951537931,N,N,1,5,5,Natural resources and mining,,
#77C898,115111,245.58627913186757,502.4642701384734,Cotton Ginning ,2.5,296.68705223953594,148.249405827548,N,N,1,5,5,Natural resources and mining,,
#77C898,115112,275.5176367463266,568.404601565298,"Soil Preparation, Planting, and Cultivating ",2.5,325.89473654060845,213.5722362692039,N,N,1,5,5,Natural resources and mining,,
#77C898,115113,236.24409114191522,571.9562577307059,"Crop Harvesting, Primarily by Machine ",2.5,287.3837320512035,223.07184486691216,N,N,1,5,5,Natural resources and mining,,
#77C898,115114,264.500210286427,527.6102009407804,Postharvest Crop Activities (except Cotton Ginning) ,2.5,317.68933385448474,173.6405520099532,N,N,1,5,5,Natural resources and mining,,
#77C898,115115,260.5291717163768,566.8753432683254,Farm Labor Contractors and Crew Leaders ,2.5,311.3039826894904,217.52668869521355,N,N,1,5,5,Natural resources and mining,,
#77C898,115116,296.8943973893234,572.6454685986952,Farm Management Services ,2.5,348.4400821522155,216.63418500010692,N,N,1,5,5,Natural resources and mining,,
#77C898,115210,274.1381367581772,541.4185723552663,Support Activities for Animal Production,2.5,324.1544269201,188.89153531151356,N,N,1,5,5,Natural resources and mining,,
#77C898,115310,298.50827720670765,583.2210970019598,Support Activities for Forestry,2.5,349.6990959986599,230.57795060807683,N,N,1,5,5,Natural resources and mining,,
#77C898,211120,528.3776137392887,806.5198809206223,Crude Petroleum Extraction ,2.5,578.1760608131086,450.54676320990023,N,N,1,5,5,Natural resources and mining,,
#77C898,211130,527.4527859826504,816.1698502123279,Natural Gas Extraction ,2.5,577.4761848075394,461.8270040251625,N,N,1,5,5,Natural resources and mining,,
#77C898,212111,506.99457994312473,863.9856919781864,Bituminous Coal and Lignite Surface Mining ,2.5,554.0377410751599,513.438703480014,N,N,1,5,5,Natural resources and mining,,
#77C898,212112,514.2300701780548,847.3355907224437,Bituminous Coal Underground Mining ,2.5,564.1406350576161,489.16283093216697,N,N,1,5,5,Natural resources and mining,,
#77C898,212113,503.3822062656051,848.3343593436475,Anthracite Mining ,2.5,550.6597170549536,491.9794447955788,N,N,1,5,5,Natural resources and mining,,
#77C898,212210,519.0514327356494,861.7152472756391,Iron Ore Mining,2.5,571.3350037676739,506.6694662635748,N,N,1,5,5,Natural resources and mining,,
#77C898,212221,507.0632825901983,873.2286607380706,Gold Ore Mining ,2.5,552.3161102526,523.7066303948799,N,N,1,5,5,Natural resources and mining,,
#77C898,212222,516.6088355820002,876.1891949697385,Silver Ore Mining ,2.5,562.9836641116914,530.1772906249942,N,N,1,5,5,Natural resources and mining,,
#77C898,212230,508.02062836956173,856.4377687500399,"Copper, Nickel, Lead, and Zinc Mining ",2.5,555.4715788808849,503.8007957206216,N,N,1,5,5,Natural resources and mining,,
#77C898,212291,513.8858377532928,866.03976060462,Uranium-Radium-Vanadium Ore Mining ,2.5,561.3737168384821,512.9660761747027,N,N,1,5,5,Natural resources and mining,,
#77C898,212299,500.1113996445047,859.1495278777209,All Other Metal Ore Mining ,2.5,544.9247598800338,506.0120966322807,N,N,1,5,5,Natural resources and mining,,
#77C898,212311,534.157963868993,870.9812206630529,Dimension Stone Mining and Quarrying ,2.5,585.853242898218,516.8235273253641,N,N,1,5,5,Natural resources and mining,,
#77C898,212312,555.5577471094889,876.5131334335534,Crushed and Broken Limestone Mining and Quarrying ,2.5,607.1127350524673,522.7646828226873,N,N,1,5,5,Natural resources and mining,,
#77C898,212313,547.4518339497662,880.6185485854475,Crushed and Broken Granite Mining and Quarrying ,2.5,600.2100061370548,529.4389251153757,N,N,1,5,5,Natural resources and mining,,
#77C898,212319,526.8130379676095,875.8176199118776,Other Crushed and Broken Stone Mining and Quarrying ,2.5,575.7672937589941,525.0885314521698,N,N,1,5,5,Natural resources and mining,,
#77C898,212321,540.3014782447661,863.8606313371502,Construction Sand and Gravel Mining ,2.5,595.3865220415456,506.5120085374023,N,N,1,5,5,Natural resources and mining,,
#77C898,212322,542.9510373721617,872.7675585632919,Industrial Sand Mining ,2.5,594.0706138015436,519.2645976834629,N,N,1,5,5,Natural resources and mining,,
#77C898,212324,540.1710626051049,887.0005426172446,Kaolin and Ball Clay Mining ,2.5,591.9855924279482,540.6004346603971,N,N,1,5,5,Natural resources and mining,,
#77C898,212325,528.6804003601649,884.6837237280043,Clay and Ceramic and Refractory Minerals Mining ,2.5,576.3301077785064,536.3992125870791,N,N,1,5,5,Natural resources and mining,,
#77C898,212391,523.8683203788387,848.3560492113085,"Potash, Soda, and Borate Mineral Mining ",2.5,577.1632934317021,490.08690733639736,N,N,1,5,5,Natural resources and mining,,
#77C898,212392,516.5166831354685,855.5974867866307,Phosphate Rock Mining ,2.5,565.317894090136,499.2445062332121,N,N,1,5,5,Natural resources and mining,,
#77C898,212393,522.3521739346231,867.8913710349598,Other Chemical and Fertilizer Mineral Mining ,2.5,570.5704920423634,515.2658378989198,N,N,1,5,5,Natural resources and mining,,
#77C898,212399,532.2679537841823,864.1348008796565,All Other Nonmetallic Mineral Mining ,2.5,585.0648774971094,510.4976195266447,N,N,1,5,5,Natural resources and mining,,
#77C898,213111,530.6831654306184,825.5337956527476,Drilling Oil and Gas Wells,2.5,582.3654776469506,474.5113120058637,N,N,1,5,5,Natural resources and mining,,
#77C898,213112,520.834303674306,824.9140277515894,Support Activities for Oil and Gas Operations ,2.5,568.7348352880028,473.2611725935796,N,N,1,5,5,Natural resources and mining,,
#77C898,213113,525.0508516891681,856.8658832192931,Support Activities for Coal Mining ,2.5,575.6759322193249,500.347768384088,N,N,1,5,5,Natural resources and mining,,
#77C898,213114,405.0896985925319,588.6199307543528,Support Activities for Metal Mining ,2.5,449.7465406540526,235.0175256284904,N,N,1,5,5,Natural resources and mining,,
#77C898,213115,535.8114004543386,877.8439742801044,Support Activities for Nonmetallic Minerals (except Fuels) Mining ,2.5,586.0847386559889,526.8013028793836,N,N,1,5,5,Natural resources and mining,,
#A973BE,221111,831.7779638453143,461.5666645791127,Hydroelectric Power Generation ,2.5,881.1037110963821,104.75260936016765,C,C,1,0,0,Construction and utilities,,
#A973BE,221112,801.8657549868115,629.3886314427658,Fossil Fuel Electric Power Generation ,2.5,851.8080212407159,276.3100421434925,C,C,1,0,0,Construction and utilities,,
#A973BE,221113,840.7746278831535,556.9202943482857,Nuclear Electric Power Generation ,2.5,890.7421788164108,203.82823338081226,C,C,1,0,0,Construction and utilities,,
#A973BE,221114,852.291886149845,285.72492700492893,Solar Electric Power Generation ,2.5,902.2614239744818,-66.3162396795992,C,C,1,0,0,Construction and utilities,,
#A973BE,221115,872.4819853635048,720.0755989842354,Wind Electric Power Generation ,2.5,922.4297809333327,364.4194698125713,C,C,1,0,0,Construction and utilities,,
#A973BE,221116,624.6631704157802,353.77911913844474,Geothermal Electric Power Generation ,2.5,674.603465371086,3.0842227099484556,C,C,1,0,0,Construction and utilities,,
#A973BE,221117,758.4401774080202,626.5411742001734,Biomass Electric Power Generation ,2.5,808.8164449462226,274.583028523531,C,C,1,0,0,Construction and utilities,,
#A973BE,221118,809.6030810278338,520.3004798599919,Other Electric Power Generation ,2.5,857.2457323371569,168.35925698834458,C,C,1,0,0,Construction and utilities,,
#A973BE,221121,790.6587971400894,532.7899957125462,Electric Bulk Power Transmission and Control ,2.5,838.8192806227588,179.12171821294376,C,C,1,0,0,Construction and utilities,,
#A973BE,221122,821.4928852487269,506.6855768709531,Electric Power Distribution ,2.5,871.502760429708,154.19609730369092,C,C,1,0,0,Construction and utilities,,
#A973BE,221210,800.1980698027252,535.79150634799,Natural Gas Distribution ,2.5,851.8923802166586,183.3252906530872,C,C,1,0,0,Construction and utilities,,
#A973BE,221310,812.6954201316007,501.28367970052386,Water Supply and Irrigation Systems ,2.5,858.8176882090601,149.02763106905618,C,C,1,0,0,Construction and utilities,,
#A973BE,221320,815.8058701525367,485.12831928126707,Sewage Treatment Facilities ,2.5,860.9121650450579,133.29889291363858,C,C,1,0,0,Construction and utilities,,
#A973BE,221330,817.3089976896935,515.3760792568008,Steam and Air-Conditioning Supply ,2.5,869.1782732229256,164.8023502908675,C,C,1,0,0,Construction and utilities,,
#A973BE,236115,424.9533103800923,567.8947311227283,New Single-Family Housing Construction (except For-Sale Builders) ,2.5,473.6402741535113,208.61479880324342,C,C,1,0,0,Construction and utilities,,
#A973BE,236116,443.4499351737423,564.666797122444,New Multifamily Housing Construction (except For-Sale Builders) ,2.5,494.34682861507883,210.34293267995108,C,C,1,0,0,Construction and utilities,,
#A973BE,236117,430.78894013197674,574.181747368048,New Housing For-Sale Builders ,2.5,483.26823328026114,217.20292101215594,C,C,1,0,0,Construction and utilities,,
#A973BE,236118,464.0103693089234,655.6312184462674,Residential Remodelers ,2.5,513.8640846112221,302.5691226321289,C,C,1,0,0,Construction and utilities,,
#A973BE,236210,448.74753852493774,602.6510374277656,Industrial Building Construction ,2.5,499.05536963028214,251.77795983586353,C,C,1,0,0,Construction and utilities,,
#A973BE,236220,432.7129684906885,583.1819375158456,Commercial and Institutional Building Construction ,2.5,485.50873749688134,231.83960351773445,C,C,1,0,0,Construction and utilities,,
#A973BE,237110,422.61433411617435,576.2988043912668,Water and Sewer Line and Related Structures Construction ,2.5,475.4043480705937,219.5137297577387,C,C,1,0,0,Construction and utilities,,
#A973BE,237120,726.1623022488067,675.1939360727191,Oil and Gas Pipeline and Related Structures Construction ,2.5,776.0844627425571,322.1312394723965,C,C,1,0,0,Construction and utilities,,
#A973BE,237130,579.2292123186005,597.8715546962502,Power and Communication Line and Related Structures Construction ,2.5,628.538552210407,246.6478484508806,C,C,1,0,0,Construction and utilities,,
#A973BE,237210,543.5514766517272,396.5750115341808,Land Subdivision ,2.5,592.5849705378398,41.63654623888379,C,C,1,0,0,Construction and utilities,,
#A973BE,237310,414.6559070393906,573.6282361868256,"Highway, Street, and Bridge Construction ",2.5,461.6946183365516,216.64850566705806,C,C,1,0,0,Construction and utilities,,
#A973BE,237990,413.14593830834957,583.2620331406116,Other Heavy and Civil Engineering Construction ,2.5,457.7046190644779,228.36887062674919,C,C,1,0,0,Construction and utilities,,
#A973BE,238110,423.2508929991233,597.9576786823857,Poured Concrete Foundation and Structure Contractors ,2.5,476.0113687576168,247.06886891823333,C,C,1,0,0,Construction and utilities,,
#A973BE,238120,748.418350891942,852.0687484023634,Structural Steel and Precast Concrete Contractors ,2.5,796.5002291210865,499.5627315969938,C,C,1,0,0,Construction and utilities,,
#A973BE,238130,410.4113517996616,611.6243638733574,Framing Contractors ,2.5,457.10833532976307,262.9516778946961,C,C,1,0,0,Construction and utilities,,
#A973BE,238140,419.8036258869104,614.6039209259201,Masonry Contractors ,2.5,468.3638677605836,265.38893206416077,C,C,1,0,0,Construction and utilities,,
#A973BE,238150,431.55643931449356,626.0342744737229,Glass and Glazing Contractors ,2.5,482.2791758649389,273.8437297232911,C,C,1,0,0,Construction and utilities,,
#A973BE,238160,424.815325844497,605.8638698002484,Roofing Contractors ,2.5,476.7289281931764,255.4006130057121,C,C,1,0,0,Construction and utilities,,
#A973BE,238170,484.6861134142351,693.6796080581446,Siding Contractors ,2.5,534.0818899640747,341.87367657440717,C,C,1,0,0,Construction and utilities,,
#A973BE,238190,767.2186094594485,816.4069118873552,"Other Foundation, Structure, and Building Exterior Contractors ",2.5,819.02296820962,458.8376149099493,C,C,1,0,0,Construction and utilities,,
#A973BE,238210,423.00706463098163,582.6594084997898,Electrical Contractors and Other Wiring Installation Contractors,2.5,471.7604295046035,229.43430855273374,C,C,1,0,0,Construction and utilities,,
#A973BE,238220,439.8325307576365,579.1189198579006,"Plumbing, Heating, and Air-Conditioning Contractors ",2.5,494.8009427905968,225.6818182050103,C,C,1,0,0,Construction and utilities,,
#A973BE,238290,454.5234146374227,594.6872056914111,Other Building Equipment Contractors ,2.5,505.6611659862013,240.26943244585513,C,C,1,0,0,Construction and utilities,,
#A973BE,238310,411.678833174971,595.0448608983096,Drywall and Insulation Contractors ,2.5,459.2253789708884,243.54078089484568,C,C,1,0,0,Construction and utilities,,
#A973BE,238320,419.06732644386875,590.3727463656918,Painting and Wall Covering Contractors,2.5,466.9463179841563,236.7830375453711,C,C,1,0,0,Construction and utilities,,
#A973BE,238330,416.21346376873163,603.8130068760166,Flooring Contractors,2.5,466.5287755022473,252.98885806293328,C,C,1,0,0,Construction and utilities,,
#A973BE,238340,406.4571597612286,602.1700182200428,Tile and Terrazzo Contractors,2.5,451.94727203053674,250.23638801282362,C,C,1,0,0,Construction and utilities,,
#A973BE,238350,468.42440121677305,702.9598540329135,Finish Carpentry Contractors,2.5,518.5208253739854,349.6119014678571,C,C,1,0,0,Construction and utilities,,
#A973BE,238390,764.7771388699621,827.0603214561562,Other Building Finishing Contractors,2.5,813.6650698643641,473.8651287155266,C,C,1,0,0,Construction and utilities,,
#A973BE,238910,428.27339459645617,589.83501389227,Site Preparation Contractors,2.5,479.0767311020551,236.09617388666913,C,C,1,0,0,Construction and utilities,,
#A973BE,238990,433.0691041299547,598.4866857152527,All Other Specialty Trade Contractors,2.5,487.7600980349498,246.55397852006934,C,C,1,0,0,Construction and utilities,,
#488098,311111,295.7004903407893,461.533643718717,Dog and Cat Food Manufacturing ,2.5,344.0085111989778,110.71334253328253,M,M,1,4,4,Manufacturing,,
#488098,311119,299.92581862865586,477.21041487120954,Other Animal Food Manufacturing ,2.5,348.2000878444959,125.85069274901183,M,M,1,4,4,Manufacturing,,
#488098,311211,295.2723500227855,420.66714498624265,Flour Milling ,2.5,347.91412970671126,70.19662622752875,M,M,1,4,4,Manufacturing,,
#488098,311212,264.1908970871149,431.09716299902533,Rice Milling ,2.5,313.8338339506474,77.41551868169597,M,M,1,4,4,Manufacturing,,
#488098,311213,352.5916476756126,406.1970956765555,Malt Manufacturing ,2.5,403.04445918118904,49.514487858745994,M,M,1,4,4,Manufacturing,,
#488098,311221,285.1238244679669,421.7667190470952,Wet Corn Milling ,2.5,335.1335908814922,68.5093225559245,M,M,1,4,4,Manufacturing,,
#488098,311224,266.1615604211083,440.9099986511931,Soybean and Other Oilseed Processing ,2.5,313.1785590023727,90.15823223950757,M,M,1,4,4,Manufacturing,,
#488098,311225,285.6045893904328,440.59019743635815,Fats and Oils Refining and Blending ,2.5,336.2501641118786,89.17283342692089,M,M,1,4,4,Manufacturing,,
#488098,311230,251.08703229258322,397.9936723013218,Breakfast Cereal Manufacturing,2.5,297.1808647087951,41.061481935871534,M,M,1,4,4,Manufacturing,,
#488098,311313,286.25030828059437,401.1575427925869,Beet Sugar Manufacturing ,2.5,337.5249712061908,44.45536867571697,M,M,1,4,4,Manufacturing,,
#488098,311314,291.67151216337123,410.18087650168764,Cane Sugar Manufacturing ,2.5,344.04746169017227,57.805598059081724,M,M,1,4,4,Manufacturing,,
#488098,311340,279.41415172073215,393.3219727012834,Nonchocolate Confectionery Manufacturing,2.5,329.43725607688947,36.214169290927856,M,M,1,4,4,Manufacturing,,
#488098,311351,306.0268052309759,403.861087114688,Chocolate and Confectionery Manufacturing from Cacao Beans ,2.5,360.51194796188827,48.26955139154732,M,M,1,4,4,Manufacturing,,
#488098,311352,283.7519990111498,410.8162949628982,Confectionery Manufacturing from Purchased Chocolate ,2.5,337.29370594701265,61.44377311289764,M,M,1,4,4,Manufacturing,,
#488098,311411,275.74912443544656,409.92592154736747,"Frozen Fruit, Juice, and Vegetable Manufacturing ",2.5,329.184207993504,57.627038280849206,M,M,1,4,4,Manufacturing,,
#488098,311412,268.42622287234474,409.61657394813386,Frozen Specialty Food Manufacturing ,2.5,316.49337462218466,56.70711216315601,M,M,1,4,4,Manufacturing,,
#488098,311421,311.35068768093083,447.09244343066683,Fruit and Vegetable Canning ,2.5,366.18622856974883,93.86306326809006,M,M,1,4,4,Manufacturing,,
#488098,311422,265.2415838872837,400.9152689695536,Specialty Canning ,2.5,314.8312256600028,45.87575768700175,M,M,1,4,4,Manufacturing,,
#488098,311423,254.4343009119033,420.4846904324367,Dried and Dehydrated Food Manufacturing ,2.5,301.0847676425519,72.95594362141283,M,M,1,4,4,Manufacturing,,
#488098,311511,279.4630415123449,430.31652591325127,Fluid Milk Manufacturing ,2.5,326.2632958411493,78.24531942075606,M,M,1,4,4,Manufacturing,,
#488098,311512,287.7255100565127,431.25341460758403,Creamery Butter Manufacturing ,2.5,336.82460820897563,75.96891217755264,M,M,1,4,4,Manufacturing,,
#488098,311513,294.17592722348274,444.34842733907084,Cheese Manufacturing ,2.5,343.2481786811579,94.90012587862947,M,M,1,4,4,Manufacturing,,
#488098,311514,302.20038024020505,427.6360383298436,"Dry, Condensed, and Evaporated Dairy Product Manufacturing ",2.5,355.4412615255368,74.62839473308887,M,M,1,4,4,Manufacturing,,
#488098,311520,307.14701873230825,420.0506580482347,Ice Cream and Frozen Dessert Manufacturing,2.5,359.84737503456387,65.71885136670275,M,M,1,4,4,Manufacturing,,
#488098,311611,304.4109385485685,456.6625717976132,Animal (except Poultry) Slaughtering ,2.5,354.9819177181706,102.76468847576044,M,M,1,4,4,Manufacturing,,
#488098,311612,304.1395090534611,441.18315406928866,Meat Processed from Carcasses ,2.5,357.0092043982055,88.99991608542635,M,M,1,4,4,Manufacturing,,
#488098,311613,276.46865723996723,442.28084248277776,Rendering and Meat Byproduct Processing ,2.5,323.62722193406023,90.67111015699868,M,M,1,4,4,Manufacturing,,
#488098,311615,285.9506334208306,450.38252870534114,Poultry Processing ,2.5,334.4290361682504,100.66465298462504,M,M,1,4,4,Manufacturing,,
#488098,311710,303.90995994467585,468.16512497801125,Seafood Product Preparation and Packaging,2.5,356.83714439685167,116.87896638688483,M,M,1,4,4,Manufacturing,,
#488098,311811,422.6868659863748,414.31680986098905,Retail Bakeries ,2.5,472.83670739796963,61.948943057294855,M,M,1,4,4,Manufacturing,,
#488098,311812,343.04892710736715,409.52296393514223,Commercial Bakeries ,2.5,390.6273664463727,56.21739136382277,M,M,1,4,4,Manufacturing,,
#488098,311813,276.5958074951881,401.46008491679885,"Frozen Cakes, Pies, and Other Pastries Manufacturing ",2.5,325.30569308163535,46.64233655156211,M,M,1,4,4,Manufacturing,,
#488098,311821,322.01584603109137,411.1186058688808,Cookie and Cracker Manufacturing ,2.5,372.7883585610801,59.62053457948013,M,M,1,4,4,Manufacturing,,
#488098,311824,300.41952399713676,412.2832920705652,"Dry Pasta, Dough, and Flour Mixes Manufacturing from Purchased Flour ",2.5,350.21457552359203,58.71128269350877,M,M,1,4,4,Manufacturing,,
#488098,311830,289.11422110549125,391.62410894691186,Tortilla Manufacturing,2.5,340.2753996847563,33.327977301325305,M,M,1,4,4,Manufacturing,,
#488098,311911,245.83393547771036,414.80157041680496,Roasted Nuts and Peanut Butter Manufacturing ,2.5,290.62801514248065,63.51809249090651,M,M,1,4,4,Manufacturing,,
#488098,311919,269.8993820215517,394.43258330203935,Other Snack Food Manufacturing ,2.5,318.2062808030399,35.160472759527245,M,M,1,4,4,Manufacturing,,
#488098,311920,329.48245515630174,404.6596841908293,Coffee and Tea Manufacturing ,2.5,379.4434443354709,48.02197968941583,M,M,1,4,4,Manufacturing,,
#488098,311930,260.5824047062602,412.99504774534296,Flavoring Syrup and Concentrate Manufacturing,2.5,308.07080173823795,61.64353775094665,M,M,1,4,4,Manufacturing,,
#488098,311941,258.4496962713863,402.4599082286077,"Mayonnaise, Dressing, and Other Prepared Sauce Manufacturing ",2.5,305.0408795119919,44.1930958450588,M,M,1,4,4,Manufacturing,,
#488098,311942,250.74475431190052,408.44989093403996,Spice and Extract Manufacturing ,2.5,298.29436616132904,55.605698684012225,M,M,1,4,4,Manufacturing,,
#488098,311991,295.8869213693296,398.83674413649373,Perishable Prepared Food Manufacturing ,2.5,346.99271726874974,45.082189002795076,M,M,1,4,4,Manufacturing,,
#488098,311999,349.41968552562787,426.14275777659657,All Other Miscellaneous Food Manufacturing ,2.5,398.1912995582533,76.68684068252355,M,M,1,4,4,Manufacturing,,
#488098,312111,349.45139306030177,416.04284257209383,Soft Drink Manufacturing ,2.5,398.390835262659,62.38589012109794,M,M,1,4,4,Manufacturing,,
#488098,312112,276.2950073429675,418.62355543504174,Bottled Water Manufacturing ,2.5,322.39727014504444,67.56323282537518,M,M,1,4,4,Manufacturing,,
#488098,312113,296.0345516314918,434.79919448874875,Ice Manufacturing ,2.5,345.4154225713896,81.44873294046208,M,M,1,4,4,Manufacturing,,
#488098,312120,364.94094366324117,408.86357457456637,Breweries,2.5,416.21169774051793,53.98556868503547,M,M,1,4,4,Manufacturing,,
#488098,312130,359.04817589685604,416.80282710926855,Wineries ,2.5,410.2494632940545,66.33865216243372,M,M,1,4,4,Manufacturing,,
#488098,312140,382.1026120353022,408.08225801881855,Distilleries ,2.5,432.6325761350341,55.21504955242473,M,M,1,4,4,Manufacturing,,
#488098,312230,386.7696081463598,437.64111614613495,Tobacco Manufacturing ,2.5,435.38911753612916,84.37510928008484,M,M,1,4,4,Manufacturing,,
#488098,313110,523.9501215322557,622.6776700427264,"Fiber, Yarn, and Thread Mills ",2.5,569.8521893659727,270.6409274528322,M,M,1,4,4,Manufacturing,,
#488098,313210,520.1943553861717,639.4933914459185,Broadwoven Fabric Mills,2.5,565.1462091828681,285.0998709711424,M,M,1,4,4,Manufacturing,,
#488098,313220,540.2264940181366,655.7530936249105,Narrow Fabric Mills and Schiffli Machine Embroidery,2.5,592.5757621134193,303.25575700208003,M,M,1,4,4,Manufacturing,,
#488098,313230,530.8037299868101,658.64544800045,Nonwoven Fabric Mills,2.5,580.209534914918,308.8714803263991,M,M,1,4,4,Manufacturing,,
#488098,313240,529.3408453216003,644.3719977269659,Knit Fabric Mills,2.5,579.8450484811932,294.12789052301014,M,M,1,4,4,Manufacturing,,
#488098,313310,536.3531060044529,638.7720688807634,Textile and Fabric Finishing Mills ,2.5,590.4689286124303,288.8416251621132,M,M,1,4,4,Manufacturing,,
#488098,313320,562.9854070028574,684.2019629654919,Fabric Coating Mills,2.5,612.6056749247284,330.79833788038644,M,M,1,4,4,Manufacturing,,
#488098,314110,521.8497187547388,649.2012290596452,Carpet and Rug Mills,2.5,568.6459174515903,297.71863919626554,M,M,1,4,4,Manufacturing,,
#488098,314120,486.4494369030861,669.3402934344924,Curtain and Linen Mills,2.5,535.8109006213068,314.5365689145283,M,M,1,4,4,Manufacturing,,
#488098,314910,545.4264445189775,672.5977924473921,Textile Bag and Canvas Mills ,2.5,595.2928003130758,319.5393378814979,M,M,1,4,4,Manufacturing,,
#488098,314994,918.6471652060145,801.0353496943167,"Rope, Cordage, Twine, Tire Cord, and Tire Fabric Mills ",2.5,967.8085465322466,448.42181718435137,M,M,1,4,4,Manufacturing,,
#488098,314999,538.3586654486561,606.8566863423416,All Other Miscellaneous Textile Product Mills ,2.5,591.4146057797607,249.67234790356204,M,M,1,4,4,Manufacturing,,
#488098,315110,527.0501467039813,634.4769980854111,Hosiery and Sock Mills,2.5,575.4176947818319,282.3715589600373,M,M,1,4,4,Manufacturing,,
#488098,315190,514.4550762251091,603.7548952441614,Other Apparel Knitting Mills ,2.5,561.445009677545,247.7565758583866,M,M,1,4,4,Manufacturing,,
#488098,315210,529.5270026920086,613.6961832874492,Cut and Sew Apparel Contractors ,2.5,577.1044185256069,265.0304886307872,M,M,1,4,4,Manufacturing,,
#488098,315220,531.0630657706841,597.2848941626622,Men’s and Boys’ Cut and Sew Apparel Manufacturing ,2.5,581.484811589015,240.10500185245294,M,M,1,4,4,Manufacturing,,
#488098,315240,520.2435642692997,611.1542826723627,"Women’s, Girls’, and Infants’ Cut and Sew Apparel Manufacturing ",2.5,566.6590151684331,259.8649776493539,M,M,1,4,4,Manufacturing,,
#488098,315280,532.6771834900923,619.0261145170247,Other Cut and Sew Apparel Manufacturing ,2.5,585.2428460834141,259.895801666089,M,M,1,4,4,Manufacturing,,
#488098,315990,528.5724791214442,606.5416275208661,Apparel Accessories and Other Apparel Manufacturing ,2.5,576.3599038748212,251.18423410924822,M,M,1,4,4,Manufacturing,,
#488098,316110,533.4398881277908,629.0055510455983,Leather and Hide Tanning and Finishing,2.5,582.398164457974,275.6293439364769,M,M,1,4,4,Manufacturing,,
#488098,316210,541.5882122167914,615.8076881315451,Footwear Manufacturing ,2.5,595.5197776457592,260.42102015323155,M,M,1,4,4,Manufacturing,,
#488098,316992,552.0432705073808,625.8776867014201,Women's Handbag and Purse Manufacturing ,2.5,607.5006920850067,274.32902218738565,M,M,1,4,4,Manufacturing,,
#488098,316998,541.9873460172656,625.780843480607,All Other Leather Good and Allied Product Manufacturing ,2.5,593.7710123733073,274.9946505439628,M,M,1,4,4,Manufacturing,,
#488098,321113,376.3630341762054,701.3259659449657,Sawmills ,2.5,422.8224086186328,348.6050990945334,M,M,1,4,4,Manufacturing,,
#488098,321114,406.4605704543594,721.2825052702834,Wood Preservation ,2.5,458.0062403507885,370.486297205346,M,M,1,4,4,Manufacturing,,
#488098,321211,393.57025101204147,716.7944589839918,Hardwood Veneer and Plywood Manufacturing ,2.5,443.2678475064948,369.20366128904885,M,M,1,4,4,Manufacturing,,
#488098,321212,371.3035057655646,708.9882402824429,Softwood Veneer and Plywood Manufacturing ,2.5,417.48329952585294,358.4239728597511,M,M,1,4,4,Manufacturing,,
#488098,321213,432.4190702703837,735.7107566791258,Engineered Wood Member (except Truss) Manufacturing ,2.5,480.4889685125667,384.4262770127671,M,M,1,4,4,Manufacturing,,
#488098,321214,374.7091819328593,692.2048499414944,Truss Manufacturing ,2.5,421.6885006231808,336.16598954211076,M,M,1,4,4,Manufacturing,,
#488098,321219,446.85952708254183,737.5121093649043,Reconstituted Wood Product Manufacturing ,2.5,497.18142392148826,385.9178716024999,M,M,1,4,4,Manufacturing,,
#488098,321911,457.8101215026557,715.2010118189637,Wood Window and Door Manufacturing ,2.5,508.81119545075353,360.9287421543425,M,M,1,4,4,Manufacturing,,
#488098,321912,439.3303760704603,728.5147681392872,"Cut Stock, Resawing Lumber, and Planing ",2.5,487.44706249130894,374.4613498457416,M,M,1,4,4,Manufacturing,,
#488098,321918,382.97590038594217,693.5235353404483,Other Millwork (including Flooring) ,2.5,430.05011775203207,337.85833214056595,M,M,1,4,4,Manufacturing,,
#488098,321920,381.0601706259973,710.0049994204595,Wood Container and Pallet Manufacturing,2.5,429.3784277478716,360.49148209395685,M,M,1,4,4,Manufacturing,,
#488098,321991,391.2620598139182,686.867161166959,Manufactured Home (Mobile Home) Manufacturing ,2.5,440.15163961954715,327.86829839644923,M,M,1,4,4,Manufacturing,,
#488098,321992,394.5826697066921,707.7971210818268,Prefabricated Wood Building Manufacturing ,2.5,442.51131600676496,360.2472546937535,M,M,1,4,4,Manufacturing,,
#488098,321999,385.99599482547904,702.1217850632644,All Other Miscellaneous Wood Product Manufacturing ,2.5,433.78276099403814,347.778645202022,M,M,1,4,4,Manufacturing,,
#488098,322110,653.7846080601796,743.629235573665,Pulp Mills ,2.5,702.9461782235127,392.13046885484704,M,M,1,4,4,Manufacturing,,
#488098,322121,661.1152719683151,730.7095568317583,Paper (except Newsprint) Mills ,2.5,710.2388243434525,376.60840238621523,M,M,1,4,4,Manufacturing,,
#488098,322122,678.3762819664512,741.0714932283869,Newsprint Mills ,2.5,732.823633947639,387.77963667044077,M,M,1,4,4,Manufacturing,,
#488098,322130,662.6849524647059,739.9316657727929,Paperboard Mills ,2.5,711.5281889596188,386.76068743049615,M,M,1,4,4,Manufacturing,,
#488098,322211,669.7412752730572,733.8677341725697,Corrugated and Solid Fiber Box Manufacturing ,2.5,720.7614243100852,381.0710851987778,M,M,1,4,4,Manufacturing,,
#488098,322212,679.8260847053812,754.8509613785158,Folding Paperboard Box Manufacturing ,2.5,732.0718256834482,403.611020881331,M,M,1,4,4,Manufacturing,,
#488098,322219,670.5167146643679,746.7172573734426,Other Paperboard Container Manufacturing ,2.5,721.6053466505983,394.12784939566905,M,M,1,4,4,Manufacturing,,
#488098,322220,660.8702953570471,749.5608481977335,Paper Bag and Coated and Treated Paper Manufacturing,2.5,711.5327159009021,400.27070044179095,M,M,1,4,4,Manufacturing,,
#488098,322230,664.023177201079,708.2332259445021,Stationery Product Manufacturing,2.5,710.8836539170682,354.82248047984336,M,M,1,4,4,Manufacturing,,
#488098,322291,646.7023342233505,737.8146319384672,Sanitary Paper Product Manufacturing ,2.5,693.0214676848178,386.03479226689296,M,M,1,4,4,Manufacturing,,
#488098,322299,653.1557198026723,729.8193211822871,All Other Converted Paper Product Manufacturing ,2.5,703.1202191094486,374.67972525455696,M,M,1,4,4,Manufacturing,,
#488098,323111,565.8761779944558,285.42485065016535,Commercial Printing (except Screen and Books) ,2.5,613.856759856853,-71.31729065622477,M,M,1,4,4,Manufacturing,,
#488098,323113,605.982039419238,666.7181148106143,Commercial Screen Printing ,2.5,654.2059937742176,312.7550978910488,M,M,1,4,4,Manufacturing,,
#488098,323117,643.369220583154,674.970903352728,Books Printing ,2.5,693.0523739946564,321.53256005748057,M,M,1,4,4,Manufacturing,,
#488098,323120,556.2367602040148,289.22450319307825,Support Activities for Printing,2.5,602.4201165272102,-66.15561804665735,M,M,1,4,4,Manufacturing,,
#488098,324110,540.6732217355615,791.3573432884671,Petroleum Refineries,2.5,589.7552853835741,441.42485907655976,M,M,1,4,4,Manufacturing,,
#488098,324121,573.1878738103871,849.6022612767479,Asphalt Paving Mixture and Block Manufacturing ,2.5,623.1113080358315,494.3602862160569,M,M,1,4,4,Manufacturing,,
#488098,324122,569.805042741696,811.304565156345,Asphalt Shingle and Coating Materials Manufacturing ,2.5,619.6768590182277,458.27000998975734,M,M,1,4,4,Manufacturing,,
#488098,324191,556.2329457977978,791.3281949148845,Petroleum Lubricating Oil and Grease Manufacturing ,2.5,608.0793211447858,440.7352858005909,M,M,1,4,4,Manufacturing,,
#488098,324199,542.8164129346427,812.7523642330494,All Other Petroleum and Coal Products Manufacturing ,2.5,592.757708665813,459.7452434570401,M,M,1,4,4,Manufacturing,,
#488098,325110,546.7957259487841,776.4403062613634,Petrochemical Manufacturing,2.5,596.592667132945,422.6451808663953,M,M,1,4,4,Manufacturing,,
#488098,325120,572.7040535474264,770.9810640596282,Industrial Gas Manufacturing,2.5,621.9416281450759,421.6843090411229,M,M,1,4,4,Manufacturing,,
#488098,325130,585.4697177330652,769.1070744842767,Synthetic Dye and Pigment Manufacturing,2.5,636.0601193038927,419.38919613589724,M,M,1,4,4,Manufacturing,,
#488098,325180,568.1497129851219,763.0812701507706,Other Basic Inorganic Chemical Manufacturing ,2.5,615.3703087644761,410.7729945357827,M,M,1,4,4,Manufacturing,,
#488098,325193,538.3919147376527,772.1162695787494,Ethyl Alcohol Manufacturing ,2.5,586.3727288782991,415.8522127899807,M,M,1,4,4,Manufacturing,,
#488098,325194,580.3784847885614,775.7466920430533,"Cyclic Crude, Intermediate, and Gum and Wood Chemical Manufacturing ",2.5,631.4960051223737,427.3372692402594,M,M,1,4,4,Manufacturing,,
#488098,325199,575.2572288501409,754.9829335380339,All Other Basic Organic Chemical Manufacturing ,2.5,623.7104462319297,401.81346177730876,M,M,1,4,4,Manufacturing,,
#488098,325211,635.2763294826074,779.0370632315006,Plastics Material and Resin Manufacturing ,2.5,683.5154996303451,428.672202688251,M,M,1,4,4,Manufacturing,,
#488098,325212,631.4769936557645,769.8864694130629,Synthetic Rubber Manufacturing ,2.5,680.7039528743256,415.0384513479884,M,M,1,4,4,Manufacturing,,
#488098,325220,602.7969091569757,769.4463125750044,Artificial and Synthetic Fibers and Filaments Manufacturing,2.5,654.5663596321115,419.57278803047507,M,M,1,4,4,Manufacturing,,
#488098,325311,553.1032444615657,769.6794915357824,Nitrogenous Fertilizer Manufacturing ,2.5,600.9843008600436,412.5365359365404,M,M,1,4,4,Manufacturing,,
#488098,325312,548.3043052539856,785.8511882605244,Phosphatic Fertilizer Manufacturing ,2.5,599.2898524855827,433.9505753686938,M,M,1,4,4,Manufacturing,,
#488098,325314,536.7132628295682,782.0198389568155,Fertilizer (Mixing Only) Manufacturing ,2.5,584.014456848163,429.3546550935671,M,M,1,4,4,Manufacturing,,
#488098,325320,563.1590023974496,770.2912883216922,Pesticide and Other Agricultural Chemical Manufacturing,2.5,611.2087355487508,420.04534594045214,M,M,1,4,4,Manufacturing,,
#488098,325411,931.7868926854076,515.7136310684164,Medicinal and Botanical Manufacturing ,2.5,981.3612183928966,165.2879265830804,M,M,1,4,4,Manufacturing,,
#488098,325412,921.8518635957906,514.4701798898392,Pharmaceutical Preparation Manufacturing ,2.5,969.5584301900137,160.94262530967075,M,M,1,4,4,Manufacturing,,
#488098,325413,944.5936997265942,512.6103951505058,In-Vitro Diagnostic Substance Manufacturing ,2.5,994.4526647419387,159.34442636876275,M,M,1,4,4,Manufacturing,,
#488098,325414,936.5996063224001,506.85570892899415,Biological Product (except Diagnostic) Manufacturing ,2.5,985.5875882727636,151.85848011076303,M,M,1,4,4,Manufacturing,,
#488098,325510,577.8076543395284,763.5141614515603,Paint and Coating Manufacturing,2.5,627.5182859811928,411.72748540003954,M,M,1,4,4,Manufacturing,,
#488098,325520,593.9132780721245,765.2348811627958,Adhesive Manufacturing,2.5,645.9484787521377,414.20443602638557,M,M,1,4,4,Manufacturing,,
#488098,325611,577.5190840285746,745.8607225258463,Soap and Other Detergent Manufacturing ,2.5,626.0180061495233,388.53487835032854,M,M,1,4,4,Manufacturing,,
#488098,325612,588.3460739886756,743.6725131214897,Polish and Other Sanitation Good Manufacturing ,2.5,640.7253424351352,386.27117667871886,M,M,1,4,4,Manufacturing,,
#488098,325613,566.7935578031178,753.9920875777406,Surface Active Agent Manufacturing ,2.5,613.8276346017661,396.6428651557467,M,M,1,4,4,Manufacturing,,
#488098,325620,595.3452345973661,724.375659638165,Toilet Preparation Manufacturing,2.5,645.3730853018876,370.774356557725,M,M,1,4,4,Manufacturing,,
#488098,325910,601.2056521958084,759.2342886313717,Printing Ink Manufacturing,2.5,653.563266824705,402.4837760890704,M,M,1,4,4,Manufacturing,,
#488098,325920,586.6460897056327,760.9122235924248,Explosives Manufacturing,2.5,639.6499503473908,407.2429056328829,M,M,1,4,4,Manufacturing,,
#488098,325991,688.0808604843456,819.2637485495651,Custom Compounding of Purchased Resins ,2.5,739.7015851231484,469.4121717555858,M,M,1,4,4,Manufacturing,,
#488098,325992,740.1639585175093,737.9313044719997,"Photographic Film, Paper, Plate, and Chemical Manufacturing ",2.5,790.0788182699313,384.8733042734068,M,M,1,4,4,Manufacturing,,
#488098,325998,583.8735722791766,751.4250212245357,All Other Miscellaneous Chemical Product and Preparation Manufacturing ,2.5,634.181540902499,394.7459534219004,M,M,1,4,4,Manufacturing,,
#488098,326111,664.1713100921829,779.8181038756942,Plastics Bag and Pouch Manufacturing ,2.5,713.6220625173116,425.25265646090514,M,M,1,4,4,Manufacturing,,
#488098,326112,656.128553374332,784.2562830008642,Plastics Packaging Film and Sheet (including Laminated) Manufacturing ,2.5,703.610164336159,433.7752642075212,M,M,1,4,4,Manufacturing,,
#488098,326113,667.5059066323652,794.2110747033698,Unlaminated Plastics Film and Sheet (except Packaging) Manufacturing ,2.5,714.427663151074,439.1949131375987,M,M,1,4,4,Manufacturing,,
#488098,326121,678.5833771708374,800.1266229839921,Unlaminated Plastics Profile Shape Manufacturing ,2.5,726.1098302533137,445.1010645862187,M,M,1,4,4,Manufacturing,,
#488098,326122,694.2015240911765,814.2312785586226,Plastics Pipe and Pipe Fitting Manufacturing ,2.5,747.3198464408263,459.19748191719077,M,M,1,4,4,Manufacturing,,
#488098,326130,670.07134422933,803.4939851304681,"Laminated Plastics Plate, Sheet (except Packaging), and Shape Manufacturing",2.5,716.8095627685348,450.48692664271545,M,M,1,4,4,Manufacturing,,
#488098,326140,686.0631651457911,795.5237712642905,Polystyrene Foam Product Manufacturing,2.5,740.0077933230893,442.4957166754635,M,M,1,4,4,Manufacturing,,
#488098,326150,678.8629286631531,809.321591687591,Urethane and Other Foam Product (except Polystyrene) Manufacturing,2.5,729.1982190431875,458.6611176613101,M,M,1,4,4,Manufacturing,,
#488098,326160,671.2168880006766,813.6045996362205,Plastics Bottle Manufacturing,2.5,719.8835367441013,462.5623692667931,M,M,1,4,4,Manufacturing,,
#488098,326191,687.3016621144119,807.9385115748745,Plastics Plumbing Fixture Manufacturing ,2.5,738.0507741738585,452.5404795747038,M,M,1,4,4,Manufacturing,,
#488098,326199,703.1190108935643,816.5922079438855,All Other Plastics Product Manufacturing ,2.5,754.1986182306831,467.09911614184233,M,M,1,4,4,Manufacturing,,
#488098,326211,652.3395791523387,767.864629742012,Tire Manufacturing (except Retreading) ,2.5,704.2730314395584,414.4463697741159,M,M,1,4,4,Manufacturing,,
#488098,326212,689.9431237034128,628.8454338720231,Tire Retreading ,2.5,742.3604808316792,278.1674956686759,M,M,1,4,4,Manufacturing,,
#488098,326220,690.358172361715,786.2623809883015,Rubber and Plastics Hoses and Belting Manufacturing,2.5,740.9959159320902,430.0335926829592,M,M,1,4,4,Manufacturing,,
#488098,326291,671.9663470802959,785.7148424886847,Rubber Product Manufacturing for Mechanical Use ,2.5,724.0588151568772,433.252710877536,M,M,1,4,4,Manufacturing,,
#488098,326299,646.1470001885643,776.0571068250207,All Other Rubber Product Manufacturing ,2.5,694.6936228387997,424.08166240064554,M,M,1,4,4,Manufacturing,,
#488098,327110,607.370292443323,864.5863484270254,"Pottery, Ceramics, and Plumbing Fixture Manufacturing ",2.5,657.2746495460441,510.8617039188282,M,M,1,4,4,Manufacturing,,
#488098,327120,587.122332987142,880.5125162985856,Clay Building Material and Refractories Manufacturing ,2.5,639.2504788480943,531.9022588706181,M,M,1,4,4,Manufacturing,,
#488098,327211,650.9183891110335,855.0438319785743,Flat Glass Manufacturing ,2.5,699.1289006898505,504.2098216535557,M,M,1,4,4,Manufacturing,,
#488098,327212,660.5978873569121,854.6928620665285,Other Pressed and Blown Glass and Glassware Manufacturing ,2.5,712.5850454845055,502.304431698424,M,M,1,4,4,Manufacturing,,
#488098,327213,662.791092614339,840.9071620339771,Glass Container Manufacturing ,2.5,713.0849676726342,487.03668461616815,M,M,1,4,4,Manufacturing,,
#488098,327215,648.839079917887,845.6678073543229,Glass Product Manufacturing Made of Purchased Glass ,2.5,697.9332686022365,490.70902349858306,M,M,1,4,4,Manufacturing,,
#488098,327310,574.9607817418308,859.4906685106371,Cement Manufacturing,2.5,623.2991142548062,504.238103148698,M,M,1,4,4,Manufacturing,,
#488098,327320,582.9323115463434,873.5550990031164,Ready-Mix Concrete Manufacturing,2.5,634.9950356984143,522.58855985169,M,M,1,4,4,Manufacturing,,
#488098,327331,576.4473579234356,868.1228131322271,Concrete Block and Brick Manufacturing ,2.5,626.1674528375486,514.545433303464,M,M,1,4,4,Manufacturing,,
#488098,327332,660.574785452512,820.2107664123719,Concrete Pipe Manufacturing ,2.5,707.5067685583844,467.59971625240416,M,M,1,4,4,Manufacturing,,
#488098,327390,577.2540055338552,879.9822803412071,Other Concrete Product Manufacturing ,2.5,627.8029483313536,531.4912478874128,M,M,1,4,4,Manufacturing,,
#488098,327410,584.0401311565878,863.6477988900164,Lime Manufacturing,2.5,634.9207012738983,506.00507045557623,M,M,1,4,4,Manufacturing,,
#488098,327420,590.1265534329723,870.6289046168175,Gypsum Product Manufacturing,2.5,643.4432599767832,513.8931397513592,M,M,1,4,4,Manufacturing,,
#488098,327910,616.5182630148371,857.5285573341026,Abrasive Product Manufacturing,2.5,668.0115195083873,503.282088791348,M,M,1,4,4,Manufacturing,,
#488098,327991,566.5824349368032,865.881111646835,Cut Stone and Stone Product Manufacturing ,2.5,612.7214247927988,511.46086584060566,M,M,1,4,4,Manufacturing,,
#488098,327992,569.0811278384888,875.4559928618621,Ground or Treated Mineral and Earth Manufacturing ,2.5,615.877024204339,525.2324208994135,M,M,1,4,4,Manufacturing,,
#488098,327993,595.9445886536884,808.8194762325288,Mineral Wool Manufacturing ,2.5,645.6159356226543,455.72005881205297,M,M,1,4,4,Manufacturing,,
#488098,327999,599.9980766967744,870.4844142924056,All Other Miscellaneous Nonmetallic Mineral Product Manufacturing ,2.5,651.7722523546427,522.5267315851243,M,M,1,4,4,Manufacturing,,
#488098,331110,788.8497996486751,861.1758869682346,Iron and Steel Mills and Ferroalloy Manufacturing ,2.5,840.9572121793743,510.480986112298,M,M,1,4,4,Manufacturing,,
#488098,331210,830.5985130083596,853.8721748013317,Iron and Steel Pipe and Tube Manufacturing from Purchased Steel,2.5,880.5339227736994,502.6652520914359,M,M,1,4,4,Manufacturing,,
#488098,331221,815.2925386568047,856.5086200672484,Rolled Steel Shape Manufacturing ,2.5,864.9017448359174,503.53499768846103,M,M,1,4,4,Manufacturing,,
#488098,331222,912.320977174259,816.6418273709111,Steel Wire Drawing ,2.5,962.3788065034803,463.0761881997859,M,M,1,4,4,Manufacturing,,
#488098,331313,884.6562584389827,869.0246551442566,Alumina Refining and Primary Aluminum Production ,2.5,938.1943585785564,519.5180774924717,M,M,1,4,4,Manufacturing,,
#488098,331314,885.8083188521215,858.5251833682867,Secondary Smelting and Alloying of Aluminum ,2.5,938.9614889784777,505.6823290818778,M,M,1,4,4,Manufacturing,,
#488098,331315,879.7760514499505,850.7261219495948,"Aluminum Sheet, Plate, and Foil Manufacturing ",2.5,931.9029977997807,493.62029000274964,M,M,1,4,4,Manufacturing,,
#488098,331318,896.7579759805218,847.0550588221103,"Other Aluminum Rolling, Drawing, and Extruding ",2.5,947.6307332739403,493.0417000241391,M,M,1,4,4,Manufacturing,,
#488098,331410,855.2366736707836,873.2107590734106,Nonferrous Metal (except Aluminum) Smelting and Refining ,2.5,904.9132788556198,523.394931380466,M,M,1,4,4,Manufacturing,,
#488098,331420,909.0654027996077,830.1439625457973,"Copper Rolling, Drawing, Extruding, and Alloying",2.5,958.8342037409442,477.9480231000656,M,M,1,4,4,Manufacturing,,
#488098,331491,870.1125520892075,848.3357063163562,"Nonferrous Metal (except Copper and Aluminum) Rolling, Drawing, and Extruding ",2.5,916.7762357795467,492.2121387091256,M,M,1,4,4,Manufacturing,,
#488098,331492,679.7082815404972,819.3240699201873,"Secondary Smelting, Refining, and Alloying of Nonferrous Metal (except Copper and Aluminum) ",2.5,728.6472466974303,471.8026435651213,M,M,1,4,4,Manufacturing,,
#488098,331511,855.9184580715505,863.6227830971648,Iron Foundries ,2.5,904.0018436019543,507.29289174601513,M,M,1,4,4,Manufacturing,,
#488098,331512,863.9647654925743,862.0525387152625,Steel Investment Foundries ,2.5,911.0487936236715,511.2610498944578,M,M,1,4,4,Manufacturing,,
#488098,331513,847.0857837567701,863.3144311695534,Steel Foundries (except Investment) ,2.5,893.9492618657652,510.4425054868381,M,M,1,4,4,Manufacturing,,
#488098,331523,877.8739894735434,862.8434530128065,Nonferrous Metal Die-Casting Foundries ,2.5,929.7767604208623,511.03495979991277,M,M,1,4,4,Manufacturing,,
#488098,331524,874.7289825738294,871.2378553261284,Aluminum Foundries (except Die-Casting) ,2.5,923.9908240309258,521.6368637422448,M,M,1,4,4,Manufacturing,,
#488098,331529,871.5019063669631,856.0849772352933,Other Nonferrous Metal Foundries (except Die-Casting) ,2.5,921.8622236665693,500.7591729474814,M,M,1,4,4,Manufacturing,,
#488098,332111,781.8020722053384,838.949045340797,Iron and Steel Forging ,2.5,832.5356406960265,487.0618532847364,M,M,1,4,4,Manufacturing,,
#488098,332112,828.974325185484,773.7323454736601,Nonferrous Forging ,2.5,877.8379337197189,423.5968488332383,M,M,1,4,4,Manufacturing,,
#488098,332114,831.0946607753613,843.9289924632849,Custom Roll Forming ,2.5,882.14563458431,488.8136303273999,M,M,1,4,4,Manufacturing,,
#488098,332117,866.9512165490318,728.3385216791742,Powder Metallurgy Part Manufacturing ,2.5,916.0821696263514,374.9209158695936,M,M,1,4,4,Manufacturing,,
#488098,332119,793.3034788113093,826.4750579807956,"Metal Crown, Closure, and Other Metal Stamping (except Automotive) ",2.5,843.891539728561,476.1435138246572,M,M,1,4,4,Manufacturing,,
#488098,332215,773.756268944997,854.0495159360972,"Metal Kitchen Cookware, Utensil, Cutlery, and Flatware (except Precious) Manufacturing ",2.5,821.4382114213895,502.43773247301345,M,M,1,4,4,Manufacturing,,
#488098,332216,787.2783184564613,818.0685644206925,Saw Blade and Handtool Manufacturing ,2.5,836.3846508758172,463.56630317036223,M,M,1,4,4,Manufacturing,,
#488098,332311,746.3390218476952,811.3443587255158,Prefabricated Metal Building and Component Manufacturing ,2.5,793.2630525654056,456.04945887429517,M,M,1,4,4,Manufacturing,,
#488098,332312,746.5551806753344,820.8567299651365,Fabricated Structural Metal Manufacturing ,2.5,792.4194022724314,469.19893562245284,M,M,1,4,4,Manufacturing,,
#488098,332313,772.3417813551971,824.1879467679768,Plate Work Manufacturing ,2.5,821.1740485990919,468.08409155874153,M,M,1,4,4,Manufacturing,,
#488098,332321,760.8303542449207,846.068928512882,Metal Window and Door Manufacturing ,2.5,808.740635449105,496.5854638047501,M,M,1,4,4,Manufacturing,,
#488098,332322,781.9121413770789,825.6292751059855,Sheet Metal Work Manufacturing ,2.5,834.2628349020864,473.76868391976484,M,M,1,4,4,Manufacturing,,
#488098,332323,757.0227912614957,823.2162297992661,Ornamental and Architectural Metal Work Manufacturing ,2.5,806.6488158911768,469.096940018004,M,M,1,4,4,Manufacturing,,
#488098,332410,888.6338476040772,755.8873787060844,Power Boiler and Heat Exchanger Manufacturing,2.5,937.5894012648532,401.8654871956174,M,M,1,4,4,Manufacturing,,
#488098,332420,792.7661567109586,799.4531004539326,Metal Tank (Heavy Gauge) Manufacturing,2.5,843.048293419534,444.39919841630274,M,M,1,4,4,Manufacturing,,
#488098,332431,783.0157890514196,855.1261139341207,Metal Can Manufacturing ,2.5,832.070906530143,503.12872250134376,M,M,1,4,4,Manufacturing,,
#488098,332439,787.4547908560696,846.5917617758713,Other Metal Container Manufacturing ,2.5,839.9073357649419,494.5024098901115,M,M,1,4,4,Manufacturing,,
#488098,332510,772.9363622161949,833.6609645254373,Hardware Manufacturing,2.5,825.5458920936155,481.8091708829949,M,M,1,4,4,Manufacturing,,
#488098,332613,860.8785562174356,801.7990303561533,Spring Manufacturing ,2.5,911.0494469098021,453.0236893571758,M,M,1,4,4,Manufacturing,,
#488098,332618,870.7850972084037,827.5063362139488,Other Fabricated Wire Product Manufacturing ,2.5,920.743968187011,474.4741637575794,M,M,1,4,4,Manufacturing,,
#488098,332710,816.154018354537,806.3086387547454,Machine Shops,2.5,868.0287092596529,452.07416033733756,M,M,1,4,4,Manufacturing,,
#488098,332721,805.3718257128129,827.3555679031842,Precision Turned Product Manufacturing ,2.5,856.6682192131908,473.7932570425724,M,M,1,4,4,Manufacturing,,
#488098,332722,812.1179702681559,834.4365373640469,"Bolt, Nut, Screw, Rivet, and Washer Manufacturing ",2.5,862.8334899215333,479.9751750241585,M,M,1,4,4,Manufacturing,,
#488098,332811,822.0155588206152,839.9839546645536,Metal Heat Treating ,2.5,872.3219092357682,489.6159585193742,M,M,1,4,4,Manufacturing,,
#488098,332812,764.5928293300468,837.6678155376017,"Metal Coating, Engraving (except Jewelry and Silverware), and Allied Services to Manufacturers ",2.5,814.1847604095013,485.9550169167912,M,M,1,4,4,Manufacturing,,
#488098,332813,804.4878026192249,840.9457222915556,"Electroplating, Plating, Polishing, Anodizing, and Coloring ",2.5,853.5831684898815,489.41029881635063,M,M,1,4,4,Manufacturing,,
#488098,332911,845.0248120759957,785.7630227627221,Industrial Valve Manufacturing ,2.5,889.8796194109292,433.8690752275608,M,M,1,4,4,Manufacturing,,
#488098,332912,853.7821971667071,786.0989728724707,Fluid Power Valve and Hose Fitting Manufacturing ,2.5,902.311955498384,433.5503075145088,M,M,1,4,4,Manufacturing,,
#488098,332913,711.8767751112294,812.0534952184987,Plumbing Fixture Fitting and Trim Manufacturing ,2.5,763.4055576277261,457.39721489404707,M,M,1,4,4,Manufacturing,,
#488098,332919,845.5085957934743,811.758068780184,Other Metal Valve and Pipe Fitting Manufacturing ,2.5,897.5195647771407,457.6589184438148,M,M,1,4,4,Manufacturing,,
#488098,332991,871.3212221359204,776.872446628308,Ball and Roller Bearing Manufacturing,2.5,925.5012591840631,422.7211369259805,M,M,1,4,4,Manufacturing,,
#488098,332992,842.8940745418735,665.6934212851118,Small Arms Ammunition Manufacturing ,2.5,889.2252712757848,313.0144692445114,M,M,1,4,4,Manufacturing,,
#488098,332993,852.4935120332689,666.2586792182739,Ammunition (except Small Arms) Manufacturing ,2.5,901.4929345048689,312.5258492995891,M,M,1,4,4,Manufacturing,,
#488098,332994,835.1406285488113,674.5489367498033,"Small Arms, Ordnance, and Ordnance Accessories Manufacturing ",2.5,884.3971324504854,322.99978148446644,M,M,1,4,4,Manufacturing,,
#488098,332996,827.0296233660965,816.737825690167,Fabricated Pipe and Pipe Fitting Manufacturing ,2.5,874.0098227417386,464.7778966628786,M,M,1,4,4,Manufacturing,,
#488098,332999,756.0964696008336,832.6843557540501,All Other Miscellaneous Fabricated Metal Product Manufacturing ,2.5,801.5171147336893,480.9935912676587,M,M,1,4,4,Manufacturing,,
#488098,333111,815.6488256250541,735.3335870119425,Farm Machinery and Equipment Manufacturing ,2.5,863.9377849637535,381.4759070938092,M,M,1,4,4,Manufacturing,,
#488098,333112,829.4543322335976,728.1997928949336,Lawn and Garden Tractor and Home Lawn and Garden Equipment Manufacturing ,2.5,877.4795339279541,377.7639968666535,M,M,1,4,4,Manufacturing,,
#488098,333120,825.6817013117957,746.5746268754945,Construction Machinery Manufacturing,2.5,873.1896165946621,391.75688701111847,M,M,1,4,4,Manufacturing,,
#488098,333131,818.3950808935464,769.1283600710236,Mining Machinery and Equipment Manufacturing ,2.5,868.117919825085,416.2516000387519,M,M,1,4,4,Manufacturing,,
#488098,333132,798.2363481682547,780.7618201930176,Oil and Gas Field Machinery and Equipment Manufacturing ,2.5,846.5206950584361,427.0424738263277,M,M,1,4,4,Manufacturing,,
#488098,333241,835.5605672612649,747.4405824097688,Food Product Machinery Manufacturing ,2.5,887.6565945773938,395.61517807655525,M,M,1,4,4,Manufacturing,,
#488098,333242,949.5179802096766,714.9171614932685,Semiconductor Machinery Manufacturing ,2.5,996.130824978347,360.43389161680835,M,M,1,4,4,Manufacturing,,
#488098,333243,804.3469426735261,764.1874463456502,"Sawmill, Woodworking, and Paper Machinery Manufacturing ",2.5,851.496797335097,411.1385817369979,M,M,1,4,4,Manufacturing,,
#488098,333244,775.3334488825649,753.33055539225,Printing Machinery and Equipment Manufacturing ,2.5,825.2444448518451,400.26818901499263,M,M,1,4,4,Manufacturing,,
#488098,333249,824.0031249228751,761.5565704152891,Other Industrial Machinery Manufacturing ,2.5,871.7581853575828,405.9680466759326,M,M,1,4,4,Manufacturing,,
#488098,333314,959.578055367066,616.8968012182962,Optical Instrument and Lens Manufacturing ,2.5,1010.828034027931,265.22976950613173,M,M,1,4,4,Manufacturing,,
#488098,333316,953.0452280050391,609.5298648849945,Photographic and Photocopying Equipment Manufacturing ,2.5,1001.7549090808742,255.00313096416218,M,M,1,4,4,Manufacturing,,
#488098,333318,924.5702507165242,702.9488481307493,Other Commercial and Service Industry Machinery Manufacturing ,2.5,974.5177704982085,349.8629113568367,M,M,1,4,4,Manufacturing,,
#488098,333413,902.9488436697533,765.8961867928001,Industrial and Commercial Fan and Blower and Air Purification Equipment Manufacturing ,2.5,956.1673214272374,415.06455660785684,M,M,1,4,4,Manufacturing,,
#488098,333414,884.7638718362609,782.7355861155357,Heating Equipment (except Warm Air Furnaces) Manufacturing ,2.5,936.1531171036772,430.492439778061,M,M,1,4,4,Manufacturing,,
#488098,333415,904.0929542480587,756.3303761228162,Air-Conditioning and Warm Air Heating Equipment and Commercial and Industrial Refrigeration Equipment Manufacturing ,2.5,951.8832003855101,402.7828824023154,M,M,1,4,4,Manufacturing,,
#488098,333511,840.7280047348104,841.8353817598262,Industrial Mold Manufacturing ,2.5,893.3208853778555,488.98612806252135,M,M,1,4,4,Manufacturing,,
#488098,333514,803.8825317595897,817.0561308897041,"Special Die and Tool, Die Set, Jig, and Fixture Manufacturing ",2.5,855.3919509678299,464.6935127071243,M,M,1,4,4,Manufacturing,,
#488098,333515,806.2257382166202,807.4130686445479,Cutting Tool and Machine Tool Accessory Manufacturing ,2.5,854.7729279601122,450.8617353663433,M,M,1,4,4,Manufacturing,,
#488098,333517,790.3627209543656,809.077823245071,Machine Tool Manufacturing ,2.5,840.2945254274048,456.6027046859213,M,M,1,4,4,Manufacturing,,
#488098,333519,807.6600755733415,784.394230078978,Rolling Mill and Other Metalworking Machinery Manufacturing ,2.5,859.185318837693,434.4309303457163,M,M,1,4,4,Manufacturing,,
#488098,333611,859.3027379051318,762.9169138777156,Turbine and Turbine Generator Set Units Manufacturing ,2.5,910.3155947112981,404.6535483105726,M,M,1,4,4,Manufacturing,,
#488098,333612,847.2825097624409,771.3367927755677,"Speed Changer, Industrial High-Speed Drive, and Gear Manufacturing ",2.5,895.8282579014312,418.88148129186226,M,M,1,4,4,Manufacturing,,
#488098,333613,856.5079792946041,793.6677080446742,Mechanical Power Transmission Equipment Manufacturing ,2.5,905.7576381864449,443.40045891810774,M,M,1,4,4,Manufacturing,,
#488098,333618,832.0596546906836,755.1662309567403,Other Engine Equipment Manufacturing ,2.5,883.1828945346136,402.8012532102004,M,M,1,4,4,Manufacturing,,
#488098,333912,861.1716391929531,780.7382094343355,Air and Gas Compressor Manufacturing ,2.5,911.575318778705,428.95403549880115,M,M,1,4,4,Manufacturing,,
#488098,333914,868.6606024257761,767.6322049404816,"Measuring, Dispensing, and Other Pumping Equipment Manufacturing ",2.5,919.5829769418636,413.1224890851319,M,M,1,4,4,Manufacturing,,
#488098,333921,849.2551907285643,735.2581097215202,Elevator and Moving Stairway Manufacturing ,2.5,902.7902889818981,383.62709119796097,M,M,1,4,4,Manufacturing,,
#488098,333922,840.969450196748,741.1275177195954,Conveyor and Conveying Equipment Manufacturing ,2.5,888.6401432274929,387.506767085765,M,M,1,4,4,Manufacturing,,
#488098,333923,838.8738813216207,731.3346691315936,"Overhead Traveling Crane, Hoist, and Monorail System Manufacturing ",2.5,890.5989406728521,374.82669174740244,M,M,1,4,4,Manufacturing,,
#488098,333924,828.581876056837,718.2866703844898,"Industrial Truck, Tractor, Trailer, and Stacker Machinery Manufacturing ",2.5,877.5254456870131,365.4860665978009,M,M,1,4,4,Manufacturing,,
#488098,333991,807.7724536219622,774.3926763941694,Power-Driven Handtool Manufacturing ,2.5,858.57842164212,420.71930500845446,M,M,1,4,4,Manufacturing,,
#488098,333992,836.9268264509732,815.633897137718,Welding and Soldering Equipment Manufacturing ,2.5,887.69578142273,464.00380686870136,M,M,1,4,4,Manufacturing,,
#488098,333993,804.7880861884041,754.141905598611,Packaging Machinery Manufacturing ,2.5,855.2580711006354,398.9456135946457,M,M,1,4,4,Manufacturing,,
#488098,333994,882.6988459533445,763.6038105732086,Industrial Process Furnace and Oven Manufacturing ,2.5,931.6140798417476,409.2693287247405,M,M,1,4,4,Manufacturing,,
#488098,333995,866.2729595162313,794.8696778038234,Fluid Power Cylinder and Actuator Manufacturing ,2.5,919.7821327094431,445.88753367738934,M,M,1,4,4,Manufacturing,,
#488098,333996,860.3749221161802,772.0314656893571,Fluid Power Pump and Motor Manufacturing ,2.5,911.1700326197043,416.50845759443513,M,M,1,4,4,Manufacturing,,
#488098,333997,931.7785503243603,681.136334287969,Scale and Balance Manufacturing ,2.5,979.1994322363154,327.2094480943876,M,M,1,4,4,Manufacturing,,
#488098,333999,790.5351484670882,790.0718113432413,All Other Miscellaneous General Purpose Machinery Manufacturing ,2.5,837.167051727198,435.8176660228045,M,M,1,4,4,Manufacturing,,
#488098,334111,977.3375238266046,685.7890440334817,Electronic Computer Manufacturing ,2.5,1028.6171625969712,329.07301499767647,M,M,1,4,4,Manufacturing,,
#488098,334112,955.7268084044075,706.4361506652873,Computer Storage Device Manufacturing ,2.5,1003.2682669890005,352.1201110648336,M,M,1,4,4,Manufacturing,,
#488098,334118,981.0642537089393,695.1456237361189,Computer Terminal and Other Computer Peripheral Equipment Manufacturing ,2.5,1034.7760698482389,339.0086773551879,M,M,1,4,4,Manufacturing,,
#488098,334210,987.5697044348134,704.2122443836072,Telephone Apparatus Manufacturing,2.5,1041.0895335889195,351.9013117933978,M,M,1,4,4,Manufacturing,,
#488098,334220,965.7639150216916,705.2776864427994,Radio and Television Broadcasting and Wireless Communications Equipment Manufacturing,2.5,1011.9379393357435,351.7783831275006,M,M,1,4,4,Manufacturing,,
#488098,334290,971.6041562059452,697.48606660895,Other Communications Equipment Manufacturing,2.5,1024.1181893854982,342.9231101401994,M,M,1,4,4,Manufacturing,,
#488098,334310,976.1844086241473,703.9944263372802,Audio and Video Equipment Manufacturing,2.5,1029.9665458308702,349.14816666542646,M,M,1,4,4,Manufacturing,,
#488098,334412,949.4800912904833,742.8462901934284,Bare Printed Circuit Board Manufacturing  ,2.5,998.0747010070443,388.94549813194556,M,M,1,4,4,Manufacturing,,
#488098,334413,980.6021922676844,712.9815341714277,Semiconductor and Related Device Manufacturing ,2.5,1035.4718430144833,364.72319523583366,M,M,1,4,4,Manufacturing,,
#488098,334416,972.3758575416928,734.7454434481372,"Capacitor, Resistor, Coil, Transformer, and Other Inductor Manufacturing ",2.5,1026.361636019135,381.72889205658703,M,M,1,4,4,Manufacturing,,
#488098,334417,974.9824500469272,744.2934434987383,Electronic Connector Manufacturing ,2.5,1025.9442723177278,392.8552452822321,M,M,1,4,4,Manufacturing,,
#488098,334418,971.2812069756243,712.938377743772,Printed Circuit Assembly (Electronic Assembly) Manufacturing ,2.5,1024.4921770439403,359.2930168492965,M,M,1,4,4,Manufacturing,,
#488098,334419,971.3338759659131,722.8666870703861,Other Electronic Component Manufacturing ,2.5,1022.6994690163801,371.58867852606886,M,M,1,4,4,Manufacturing,,
#488098,334510,970.3210891271078,534.8986279484203,Electromedical and Electrotherapeutic Apparatus Manufacturing ,2.5,1021.8822477976827,184.72039126454996,M,M,1,4,4,Manufacturing,,
#488098,334511,962.6161048095969,681.7932028507211,"Search, Detection, Navigation, Guidance, Aeronautical, and Nautical System and Instrument Manufacturing ",2.5,1014.9461160039257,326.1450923544278,M,M,1,4,4,Manufacturing,,
#488098,334512,912.8690536191384,737.2519557804708,"Automatic Environmental Control Manufacturing for Residential, Commercial, and Appliance Use ",2.5,962.2068028390067,382.24113206248484,M,M,1,4,4,Manufacturing,,
#488098,334513,940.9697555754125,685.0344381819436,"Instruments and Related Products Manufacturing for Measuring, Displaying, and Controlling Industrial Process Variables ",2.5,989.6061276132683,333.46504226774124,M,M,1,4,4,Manufacturing,,
#488098,334514,946.2705267825181,676.7780136074863,Totalizing Fluid Meter and Counting Device Manufacturing ,2.5,993.7321507674923,322.18768827519244,M,M,1,4,4,Manufacturing,,
#488098,334515,953.5717408486202,692.2353009507906,Instrument Manufacturing for Measuring and Testing Electricity and Electrical Signals ,2.5,1002.0799604328852,338.91424455395463,M,M,1,4,4,Manufacturing,,
#488098,334516,954.9798791739706,657.802673109987,Analytical Laboratory Instrument Manufacturing ,2.5,1004.6226283246041,303.25998302218164,M,M,1,4,4,Manufacturing,,
#488098,334517,960.6417216186661,518.072966632984,Irradiation Apparatus Manufacturing ,2.5,1010.6448130345283,164.19969986843947,M,M,1,4,4,Manufacturing,,
#488098,334519,956.2186579578829,674.8755109353145,Other Measuring and Controlling Device Manufacturing ,2.5,1007.2514596957247,319.58525194899323,M,M,1,4,4,Manufacturing,,
#488098,334613,968.6644501200169,689.588708736739,Blank Magnetic and Optical Recording Media Manufacturing ,2.5,1017.833760341547,337.2962044320135,M,M,1,4,4,Manufacturing,,
#488098,334614,597.2260889801579,296.8319607309189,"Software and Other Prerecorded Compact Disc, Tape, and Record Reproducing ",2.5,647.0889649322762,-55.78917157412291,M,M,1,4,4,Manufacturing,,
#488098,335110,952.3900455138287,764.7541686026186,Electric Lamp Bulb and Part Manufacturing,2.5,1003.7618074342267,415.16837996564095,M,M,1,4,4,Manufacturing,,
#488098,335121,958.2749563877411,757.5648556292749,Residential Electric Lighting Fixture Manufacturing ,2.5,1010.3521650585747,406.49642003691287,M,M,1,4,4,Manufacturing,,
#488098,335122,967.7605893268845,758.6880647817682,"Commercial, Industrial, and Institutional Electric Lighting Fixture Manufacturing ",2.5,1020.3164536528304,408.2192433252959,M,M,1,4,4,Manufacturing,,
#488098,335129,956.646269708337,748.1887457450097,Other Lighting Equipment Manufacturing ,2.5,1007.5276165389621,397.4719492135989,M,M,1,4,4,Manufacturing,,
#488098,335210,922.6625554124803,747.9520802877287,Small Electrical Appliance Manufacturing,2.5,973.8052581115663,394.7326297695164,M,M,1,4,4,Manufacturing,,
#488098,335220,912.0010463612941,749.0035922547246,Major Household Appliance Manufacturing ,2.5,961.9864173401086,396.833283583033,M,M,1,4,4,Manufacturing,,
#488098,335311,959.7337414661471,730.173284894932,"Power, Distribution, and Specialty Transformer Manufacturing ",2.5,1006.9690662539253,379.40112677651916,M,M,1,4,4,Manufacturing,,
#488098,335312,957.1753068998747,721.2309791732522,Motor and Generator Manufacturing ,2.5,1004.2047971264774,368.55669685091095,M,M,1,4,4,Manufacturing,,
#488098,335313,961.6902255614348,713.5324968107377,Switchgear and Switchboard Apparatus Manufacturing ,2.5,1011.9078812492137,359.5020161223056,M,M,1,4,4,Manufacturing,,
#488098,335314,949.831485424483,724.9102132929299,Relay and Industrial Control Manufacturing ,2.5,995.7858002688356,369.38820412153564,M,M,1,4,4,Manufacturing,,
#488098,335911,946.7500386902209,734.5173112433165,Storage Battery Manufacturing ,2.5,993.3765403996163,381.129716860118,M,M,1,4,4,Manufacturing,,
#488098,335912,960.0463307316169,739.9489092987404,Primary Battery Manufacturing ,2.5,1013.8742913488484,385.6029998587949,M,M,1,4,4,Manufacturing,,
#488098,335921,946.6797680223596,776.6203823204071,Fiber Optic Cable Manufacturing ,2.5,995.5861452504819,425.0917826535857,M,M,1,4,4,Manufacturing,,
#488098,335929,928.1668228356835,793.2207886435274,Other Communication and Energy Wire Manufacturing ,2.5,979.0421169114959,439.44468209151955,M,M,1,4,4,Manufacturing,,
#488098,335931,949.2975005040491,753.101314588395,Current-Carrying Wiring Device Manufacturing ,2.5,1000.1087652590682,400.1096092660112,M,M,1,4,4,Manufacturing,,
#488098,335932,943.3479958831134,761.1978880783186,Noncurrent-Carrying Wiring Device Manufacturing ,2.5,989.9018342410455,410.01461186136584,M,M,1,4,4,Manufacturing,,
#488098,335991,610.663163258539,813.5475023023346,Carbon and Graphite Product Manufacturing ,2.5,660.7701370170572,460.58729202012046,M,M,1,4,4,Manufacturing,,
#488098,335999,943.0610854870483,705.6973763765487,All Other Miscellaneous Electrical Equipment and Component Manufacturing ,2.5,990.9799043429852,350.82820354883853,M,M,1,4,4,Manufacturing,,
#488098,336111,817.9699989886508,703.9638279713708,Automobile Manufacturing ,2.5,866.4469004091044,351.99457408529094,M,M,1,4,4,Manufacturing,,
#488098,336112,883.8877705334688,684.776010290395,Light Truck and Utility Vehicle Manufacturing ,2.5,933.8542620055607,331.6850084736218,M,M,1,4,4,Manufacturing,,
#488098,336120,861.0910644353597,707.2316483587266,Heavy Duty Truck Manufacturing,2.5,910.7667420628726,353.8867781736115,M,M,1,4,4,Manufacturing,,
#488098,336211,837.021184508334,708.9081760886344,Motor Vehicle Body Manufacturing ,2.5,889.8888615610585,357.44500311229797,M,M,1,4,4,Manufacturing,,
#488098,336212,840.9983307312102,696.8094493379249,Truck Trailer Manufacturing ,2.5,889.9299168108303,342.14906069124584,M,M,1,4,4,Manufacturing,,
#488098,336213,849.3322143282118,689.5752529533491,Motor Home Manufacturing ,2.5,901.7377171385674,338.43801712374295,M,M,1,4,4,Manufacturing,,
#488098,336214,827.3000828041554,706.6135267080924,Travel Trailer and Camper Manufacturing ,2.5,877.4011614764727,350.59926008957495,M,M,1,4,4,Manufacturing,,
#488098,336310,852.5900418803849,778.5077320565856,Motor Vehicle Gasoline Engine and Engine Parts Manufacturing,2.5,900.9048718901855,425.70105419144136,M,M,1,4,4,Manufacturing,,
#488098,336320,938.3088848152803,745.4806170689973,Motor Vehicle Electrical and Electronic Equipment Manufacturing,2.5,985.822939814242,394.12301126565325,M,M,1,4,4,Manufacturing,,
#488098,336330,867.0898175869035,785.0009747260814,Motor Vehicle Steering and Suspension Components (except Spring) Manufacturing,2.5,919.3148587990248,432.23966199887207,M,M,1,4,4,Manufacturing,,
#488098,336340,871.4935084846365,739.8662944153903,Motor Vehicle Brake System Manufacturing,2.5,922.3952046514406,388.11972631550316,M,M,1,4,4,Manufacturing,,
#488098,336350,849.7679169081642,759.8837884285041,Motor Vehicle Transmission and Power Train Parts Manufacturing,2.5,899.4385320841358,404.75253134969563,M,M,1,4,4,Manufacturing,,
#488098,336360,880.5495450283684,725.9647376907216,Motor Vehicle Seating and Interior Trim Manufacturing,2.5,931.9132083199212,374.02125245444773,M,M,1,4,4,Manufacturing,,
#488098,336370,837.983744620574,770.2572898663125,Motor Vehicle Metal Stamping,2.5,886.2464639027472,418.19820922241803,M,M,1,4,4,Manufacturing,,
#488098,336390,813.8783274526996,712.6965580176784,Other Motor Vehicle Parts Manufacturing,2.5,861.910290485533,361.92692587848893,M,M,1,4,4,Manufacturing,,
#488098,336411,834.8644668444966,643.1546211322395,Aircraft Manufacturing ,2.5,884.2201270526455,289.94062059680454,M,M,1,4,4,Manufacturing,,
#488098,336412,847.8301147244777,656.682174740393,Aircraft Engine and Engine Parts Manufacturing ,2.5,896.0950286279397,303.4881270491034,M,M,1,4,4,Manufacturing,,
#488098,336413,861.7455460368583,670.2850260747377,Other Aircraft Parts and Auxiliary Equipment Manufacturing ,2.5,914.8590342385701,319.5827022669963,M,M,1,4,4,Manufacturing,,
#488098,336414,849.5401685918433,646.9770165065615,Guided Missile and Space Vehicle Manufacturing ,2.5,899.357418243388,289.52328961738635,M,M,1,4,4,Manufacturing,,
#488098,336415,857.9289966086014,651.0435069492245,Guided Missile and Space Vehicle Propulsion Unit and Propulsion Unit Parts Manufacturing ,2.5,910.1459257606226,294.7893404481116,M,M,1,4,4,Manufacturing,,
#488098,336419,860.4117715234299,660.3794312542788,Other Guided Missile and Space Vehicle Parts and Auxiliary Equipment Manufacturing ,2.5,913.9285617462621,307.84822326460045,M,M,1,4,4,Manufacturing,,
#488098,336510,818.4408182381441,684.9869188838094,Railroad Rolling Stock Manufacturing,2.5,869.3523141347243,328.4676632490231,M,M,1,4,4,Manufacturing,,
#488098,336611,756.9166962114366,614.2618110655969,Ship Building and Repairing ,2.5,808.2883003791618,259.635925274284,M,M,1,4,4,Manufacturing,,
#488098,336612,747.8103965216741,617.8916508253213,Boat Building ,2.5,795.8591207861956,265.2739700846952,M,M,1,4,4,Manufacturing,,
#488098,336991,801.8198232331132,696.2610749783817,"Motorcycle, Bicycle, and Parts Manufacturing ",2.5,850.2304065687492,343.37362809089166,M,M,1,4,4,Manufacturing,,
#488098,336992,852.6431791004777,676.2421477128509,"Military Armored Vehicle, Tank, and Tank Component Manufacturing ",2.5,901.7230323188353,323.47324383431913,M,M,1,4,4,Manufacturing,,
#488098,336999,816.6212706240633,694.7117661600403,All Other Transportation Equipment Manufacturing ,2.5,865.7733099421516,341.29134966143295,M,M,1,4,4,Manufacturing,,
#488098,337110,405.1059301512946,707.994387867657,Wood Kitchen Cabinet and Countertop Manufacturing,2.5,454.20999799304815,358.227279648483,M,M,1,4,4,Manufacturing,,
#488098,337121,398.73344908774664,699.759611139904,Upholstered Household Furniture Manufacturing ,2.5,446.57971693724954,349.556399716689,M,M,1,4,4,Manufacturing,,
#488098,337122,401.3510278075909,688.6279309622579,Nonupholstered Wood Household Furniture Manufacturing ,2.5,453.19974305597657,329.8623933299164,M,M,1,4,4,Manufacturing,,
#488098,337124,414.58648330802333,707.6314400237981,Metal Household Furniture Manufacturing ,2.5,466.5093146333504,355.4935558980707,M,M,1,4,4,Manufacturing,,
#488098,337125,410.22611721028824,692.3523372709589,Household Furniture (except Wood and Metal) Manufacturing ,2.5,462.9571257670683,336.86906080592996,M,M,1,4,4,Manufacturing,,
#488098,337127,392.0557660726568,695.111969847132,Institutional Furniture Manufacturing ,2.5,443.17645160980607,337.6115181772088,M,M,1,4,4,Manufacturing,,
#488098,337211,405.4315420292903,699.5084157020931,Wood Office Furniture Manufacturing ,2.5,456.73255165642297,345.84519736867986,M,M,1,4,4,Manufacturing,,
#488098,337212,448.7022944021503,724.7929175356895,Custom Architectural Woodwork and Millwork Manufacturing ,2.5,500.70186425374254,372.3313895585116,M,M,1,4,4,Manufacturing,,
#488098,337214,422.85556472161926,711.9747482117061,Office Furniture (except Wood) Manufacturing ,2.5,472.8002478852297,363.6376121485437,M,M,1,4,4,Manufacturing,,
#488098,337215,432.6474699987315,713.9938986718691,"Showcase, Partition, Shelving, and Locker Manufacturing ",2.5,484.67623521491026,358.84155806748873,M,M,1,4,4,Manufacturing,,
#488098,337910,417.42394366781696,698.5792360847503,Mattress Manufacturing,2.5,472.1611038931311,345.3655892132953,M,M,1,4,4,Manufacturing,,
#488098,337920,504.5462492979261,688.8653289236173,Blind and Shade Manufacturing,2.5,554.3761731992928,335.2231344787502,M,M,1,4,4,Manufacturing,,
#488098,339112,966.0505011905072,526.7769571048566,Surgical and Medical Instrument Manufacturing ,2.5,1018.689868736277,173.33474532621756,M,M,1,4,4,Manufacturing,,
#488098,339113,957.178126129454,527.5679314536394,Surgical Appliance and Supplies Manufacturing ,2.5,1007.6216215895573,177.60247146353962,M,M,1,4,4,Manufacturing,,
#488098,339114,954.1246362302076,510.90144540330476,Dental Equipment and Supplies Manufacturing ,2.5,1006.7228333174689,154.81448546115368,M,M,1,4,4,Manufacturing,,
#488098,339115,952.8212211168848,559.6687129351185,Ophthalmic Goods Manufacturing ,2.5,1002.8046723409444,206.5755845311425,M,M,1,4,4,Manufacturing,,
#488098,339116,949.2764209093192,461.39002744972754,Dental Laboratories ,2.5,999.6387442291856,107.58747511871988,M,M,1,4,4,Manufacturing,,
#488098,339910,571.7997889554501,533.5447755545703,Jewelry and Silverware Manufacturing ,2.5,624.2567791258701,180.67878669649943,M,M,1,4,4,Manufacturing,,
#488098,339920,698.3224717931357,651.5607415277719,Sporting and Athletic Goods Manufacturing,2.5,747.5178970884236,298.93344071050194,M,M,1,4,4,Manufacturing,,
#488098,339930,683.2076539518815,658.2245669788418,"Doll, Toy, and Game Manufacturing",2.5,733.2251197965778,303.4177887690273,M,M,1,4,4,Manufacturing,,
#488098,339940,643.7543662282299,727.1908196587992,Office Supplies (except Paper) Manufacturing,2.5,689.9142534903491,371.28112478273505,M,M,1,4,4,Manufacturing,,
#488098,339950,614.7160685695167,671.4515733242378,Sign Manufacturing,2.5,666.2615740793134,319.27689393083995,M,M,1,4,4,Manufacturing,,
#488098,339991,672.8484814200644,775.9951554706394,"Gasket, Packing, and Sealing Device Manufacturing ",2.5,724.829237781335,419.64092779387414,M,M,1,4,4,Manufacturing,,
#488098,339992,702.1554884404458,438.24712693574423,Musical Instrument Manufacturing ,2.5,753.5595724558957,86.89178615227802,M,M,1,4,4,Manufacturing,,
#488098,339993,763.8660795546402,787.7921228272088,"Fastener, Button, Needle, and Pin Manufacturing ",2.5,813.7777938151711,434.7339620994437,M,M,1,4,4,Manufacturing,,
#488098,339994,615.8374115587133,781.0790060583291,"Broom, Brush, and Mop Manufacturing ",2.5,666.3361301261108,428.4949842650882,M,M,1,4,4,Manufacturing,,
#488098,339995,740.659120803955,717.1405832468203,Burial Casket Manufacturing ,2.5,790.5837784035714,364.080156132175,M,M,1,4,4,Manufacturing,,
#488098,339999,534.6549272093408,576.8171711951184,All Other Miscellaneous Manufacturing ,2.5,584.9738841216229,224.52418569711313,M,M,1,4,4,Manufacturing,,
#F28188,423110,629.1882056065863,573.7500024222442,Automobile and Other Motor Vehicle Merchant Wholesalers ,2.5,679.2090637435,218.24216103205424,T,T,1,8,8,Trade and transportation,,
#F28188,423120,629.608146223126,596.9518526679603,Motor Vehicle Supplies and New Parts Merchant Wholesalers ,2.5,677.1700157272057,247.43200388388067,T,T,1,8,8,Trade and transportation,,
#F28188,423130,663.0674953770064,616.8316920620878,Tire and Tube Merchant Wholesalers ,2.5,708.767659446372,264.05046713599205,T,T,1,8,8,Trade and transportation,,
#F28188,423140,673.7080279417636,618.8648731584276,Motor Vehicle Parts (Used) Merchant Wholesalers ,2.5,722.2503004150317,265.86929084834173,T,T,1,8,8,Trade and transportation,,
#F28188,423210,492.93280483083646,515.0757501904019,Furniture Merchant Wholesalers ,2.5,543.6671398242378,162.57428444625353,T,T,1,8,8,Trade and transportation,,
#F28188,423220,516.5302175423548,493.99593802213633,Home Furnishing Merchant Wholesalers ,2.5,566.3325667997249,141.50647695326492,T,T,1,8,8,Trade and transportation,,
#F28188,423310,509.1861459267108,702.0930805731393,"Lumber, Plywood, Millwork, and Wood Panel Merchant Wholesalers ",2.5,560.0620105223262,349.2077466936005,T,T,1,8,8,Trade and transportation,,
#F28188,423320,570.7678271617934,840.0646548299105,"Brick, Stone, and Related Construction Material Merchant Wholesalers ",2.5,620.0193515553391,484.6332975961163,T,T,1,8,8,Trade and transportation,,
#F28188,423330,548.346591814518,718.7235199738609,"Roofing, Siding, and Insulation Material Merchant Wholesalers ",2.5,597.5861162918881,365.6877973310437,T,T,1,8,8,Trade and transportation,,
#F28188,423390,532.5010457942224,537.4502482646817,Other Construction Material Merchant Wholesalers ,2.5,581.8795060933064,184.00644828315794,T,T,1,8,8,Trade and transportation,,
#F28188,423410,940.1415099062057,581.4977223285327,Photographic Equipment and Supplies Merchant Wholesalers ,2.5,991.1396490589564,228.94462103938326,T,T,1,8,8,Trade and transportation,,
#F28188,423420,534.0645236795176,486.61404194372574,Office Equipment Merchant Wholesalers ,2.5,582.6236384550659,132.1388701364333,T,T,1,8,8,Trade and transportation,,
#F28188,423430,560.5694079151959,393.9314459506884,Computer and Computer Peripheral Equipment and Software Merchant Wholesalers ,2.5,609.115016449196,38.582191401213194,T,T,1,8,8,Trade and transportation,,
#F28188,423440,573.3203606185039,383.8611496073839,Other Commercial Equipment Merchant Wholesalers ,2.5,621.2750336680399,30.7320988784604,T,T,1,8,8,Trade and transportation,,
#F28188,423450,947.7604640235797,524.6698572984174,"Medical, Dental, and Hospital Equipment and Supplies Merchant Wholesalers ",2.5,995.2053722395635,171.79930567124936,T,T,1,8,8,Trade and transportation,,
#F28188,423460,933.6734846506258,563.4861872208576,Ophthalmic Goods Merchant Wholesalers ,2.5,984.173729630597,209.41411797626702,T,T,1,8,8,Trade and transportation,,
#F28188,423490,929.4253396145361,575.3951501930861,Other Professional Equipment and Supplies Merchant Wholesalers ,2.5,977.8419453708067,222.73746349679374,T,T,1,8,8,Trade and transportation,,
#F28188,423510,543.7629240982333,558.6134236751495,Metal Service Centers and Other Metal Merchant Wholesalers ,2.5,595.3211173341731,207.8543555734373,T,T,1,8,8,Trade and transportation,,
#F28188,423520,556.8557112398356,550.2365159674288,Coal and Other Mineral and Ore Merchant Wholesalers ,2.5,606.7751757612239,198.862856257437,T,T,1,8,8,Trade and transportation,,
#F28188,423610,563.2625959104957,528.4058701528382,"Electrical Apparatus and Equipment, Wiring Supplies, and Related Equipment Merchant Wholesalers ",2.5,613.3452920526755,173.19789263532826,T,T,1,8,8,Trade and transportation,,
#F28188,423620,518.3020476490902,483.80709614780784,"Household Appliances, Electric Housewares, and Consumer Electronics Merchant Wholesalers ",2.5,569.1995600385309,130.22411375635264,T,T,1,8,8,Trade and transportation,,
#F28188,423690,563.997183326686,432.5019734957053,Other Electronic Parts and Equipment Merchant Wholesalers ,2.5,613.8669558393764,79.36896510734734,T,T,1,8,8,Trade and transportation,,
#F28188,423710,571.7337676011522,696.1445388763548,Hardware Merchant Wholesalers ,2.5,621.8599196189683,343.42463355399,T,T,1,8,8,Trade and transportation,,
#F28188,423720,516.319386739495,533.3800488743184,Plumbing and Heating Equipment and Supplies (Hydronics) Merchant Wholesalers ,2.5,564.7197942178458,180.25231816440203,T,T,1,8,8,Trade and transportation,,
#F28188,423730,893.1014374530052,764.0474484862478,Warm Air Heating and Air-Conditioning Equipment and Supplies Merchant Wholesalers ,2.5,944.0834430159344,414.51613825135223,T,T,1,8,8,Trade and transportation,,
#F28188,423740,891.8784445438079,747.2255960879218,Refrigeration Equipment and Supplies Merchant Wholesalers ,2.5,942.5690277918465,390.9502262265513,T,T,1,8,8,Trade and transportation,,
#F28188,423810,525.8763444493541,506.4498822493567,Construction and Mining (except Oil Well) Machinery and Equipment Merchant Wholesalers ,2.5,573.5559197877195,153.1116673935242,T,T,1,8,8,Trade and transportation,,
#F28188,423820,486.8240566934421,506.71076781899154,Farm and Garden Machinery and Equipment Merchant Wholesalers ,2.5,536.293995778778,151.532767527608,T,T,1,8,8,Trade and transportation,,
#F28188,423830,544.5716205619449,510.1806636969951,Industrial Machinery and Equipment Merchant Wholesalers ,2.5,597.9298199317193,157.13586314322572,T,T,1,8,8,Trade and transportation,,
#F28188,423840,541.8677816670607,522.6061302045457,Industrial Supplies Merchant Wholesalers,2.5,591.8295331563043,172.86120396678274,T,T,1,8,8,Trade and transportation,,
#F28188,423850,706.0261487258531,701.7946259802643,Service Establishment Equipment and Supplies Merchant Wholesalers ,2.5,755.9424503248144,348.73199080429686,T,T,1,8,8,Trade and transportation,,
#F28188,423860,521.5967685210744,515.2522183008697,Transportation Equipment and Supplies (except Motor Vehicle) Merchant Wholesalers ,2.5,569.8211709520891,164.70209432776306,T,T,1,8,8,Trade and transportation,,
#F28188,423910,708.0328689241603,647.0227424100725,Sporting and Recreational Goods and Supplies Merchant Wholesalers ,2.5,759.4334662144976,293.2457756893079,T,T,1,8,8,Trade and transportation,,
#F28188,423920,678.84562522476,667.0508917635758,Toy and Hobby Goods and Supplies Merchant Wholesalers ,2.5,727.8462971401991,315.97725313934313,T,T,1,8,8,Trade and transportation,,
#F28188,423930,550.3202723794461,517.5536791170176,Recyclable Material Merchant Wholesalers ,2.5,602.9857984500877,165.68648926831364,T,T,1,8,8,Trade and transportation,,
#F28188,423940,562.1554329352101,538.1923431579411,"Jewelry, Watch, Precious Stone, and Precious Metal Merchant Wholesalers ",2.5,611.1926653392405,185.96092411956928,T,T,1,8,8,Trade and transportation,,
#F28188,423990,504.66015556540384,471.1344209337443,Other Miscellaneous Durable Goods Merchant Wholesalers ,2.5,552.9723089568035,118.31201825855932,T,T,1,8,8,Trade and transportation,,
#F28188,424110,665.8481665230988,717.2162790577411,Printing and Writing Paper Merchant Wholesalers ,2.5,714.9147429644203,365.7041122562581,T,T,1,8,8,Trade and transportation,,
#F28188,424120,662.7095351624886,699.0364878917784,Stationery and Office Supplies Merchant Wholesalers ,2.5,713.8023986466583,343.6454263967242,T,T,1,8,8,Trade and transportation,,
#F28188,424130,672.6108203666593,724.5125335580753,Industrial and Personal Service Paper Merchant Wholesalers ,2.5,727.555080910884,369.2161081108922,T,T,1,8,8,Trade and transportation,,
#F28188,424210,541.0563902783517,476.6418024504372,Drugs and Druggists' Sundries Merchant Wholesalers ,2.5,593.3378961991609,122.32003798529766,T,T,1,8,8,Trade and transportation,,
#F28188,424310,521.8423785410748,547.7966969084638,"Piece Goods, Notions, and Other Dry Goods Merchant Wholesalers ",2.5,570.9433580268457,192.85529435551027,T,T,1,8,8,Trade and transportation,,
#F28188,424320,534.3573414131919,555.4334429500439,Men's and Boys' Clothing and Furnishings Merchant Wholesalers ,2.5,583.9959693217126,201.6374277412033,T,T,1,8,8,Trade and transportation,,
#F28188,424330,527.3189461088803,562.2817555639838,"Women's, Children's, and Infants' Clothing and Accessories Merchant Wholesalers ",2.5,577.5211295946327,212.04910621477126,T,T,1,8,8,Trade and transportation,,
#F28188,424340,518.9580286339889,557.261670943513,Footwear Merchant Wholesalers ,2.5,565.8828800977128,205.1982764026561,T,T,1,8,8,Trade and transportation,,
#F28188,424410,404.7217806513096,462.325787159032,General Line Grocery Merchant Wholesalers ,2.5,454.5507630911688,109.10634761950647,T,T,1,8,8,Trade and transportation,,
#F28188,424420,330.3588559720764,435.45692578638824,Packaged Frozen Food Merchant Wholesalers ,2.5,380.2060961246778,82.32457219538817,T,T,1,8,8,Trade and transportation,,
#F28188,424430,365.73079975913083,457.1510519132841,Dairy Product (except Dried or Canned) Merchant Wholesalers ,2.5,417.0897141806886,105.04739989719184,T,T,1,8,8,Trade and transportation,,
#F28188,424440,280.78402155814916,479.3922573836689,Poultry and Poultry Product Merchant Wholesalers ,2.5,330.6082191716893,126.27679593470381,T,T,1,8,8,Trade and transportation,,
#F28188,424450,372.4280423610141,444.6188937101749,Confectionery Merchant Wholesalers ,2.5,421.76945126638276,90.63178368742003,T,T,1,8,8,Trade and transportation,,
#F28188,424460,357.9915027684071,468.55977105740976,Fish and Seafood Merchant Wholesalers ,2.5,407.9429923409038,116.72544737227088,T,T,1,8,8,Trade and transportation,,
#F28188,424470,355.72432630033757,457.1857983677919,Meat and Meat Product Merchant Wholesalers ,2.5,403.4853547050669,103.1137850024603,T,T,1,8,8,Trade and transportation,,
#F28188,424480,384.5883669655718,458.5276564160546,Fresh Fruit and Vegetable Merchant Wholesalers ,2.5,434.1040767095486,105.67852747251307,T,T,1,8,8,Trade and transportation,,
#F28188,424490,396.1904260129314,448.10480106386467,Other Grocery and Related Products Merchant Wholesalers ,2.5,445.9664655796574,96.77178329417004,T,T,1,8,8,Trade and transportation,,
#F28188,424510,374.47528327554375,484.5903668732052,Grain and Field Bean Merchant Wholesalers ,2.5,424.3080646526287,131.49395430469684,T,T,1,8,8,Trade and transportation,,
#F28188,424520,290.7637283846369,506.58151681734654,Livestock Merchant Wholesalers ,2.5,342.5925009476065,153.37136327065951,T,T,1,8,8,Trade and transportation,,
#F28188,424590,406.29525561741576,485.42449877673437,Other Farm Product Raw Material Merchant Wholesalers ,2.5,455.09744818742035,134.01072010420458,T,T,1,8,8,Trade and transportation,,
#F28188,424610,648.1163108926604,758.9291997197157,Plastics Materials and Basic Forms and Shapes Merchant Wholesalers ,2.5,695.1812442695285,404.9185326026877,T,T,1,8,8,Trade and transportation,,
#F28188,424690,538.9775350450305,544.9776679299652,Other Chemical and Allied Products Merchant Wholesalers ,2.5,591.4023393916409,191.15881609505593,T,T,1,8,8,Trade and transportation,,
#F28188,424710,582.1063022197388,588.5079464951416,Petroleum Bulk Stations and Terminals ,2.5,632.5410683100093,233.5968748112276,T,T,1,8,8,Trade and transportation,,
#F28188,424720,591.3591983638458,568.5362013257524,Petroleum and Petroleum Products Merchant Wholesalers (except Bulk Stations and Terminals) ,2.5,641.2160110327808,215.44048124164922,T,T,1,8,8,Trade and transportation,,
#F28188,424810,374.2881842811565,422.7144086547634,Beer and Ale Merchant Wholesalers ,2.5,425.94832226831477,69.99599461488091,T,T,1,8,8,Trade and transportation,,
#F28188,424820,393.95039716786226,427.04984827053204,Wine and Distilled Alcoholic Beverage Merchant Wholesalers ,2.5,443.02800501856683,71.5025388479686,T,T,1,8,8,Trade and transportation,,
#F28188,424910,411.3072689839504,476.8864047401199,Farm Supplies Merchant Wholesalers ,2.5,462.43626696280336,122.45449533298313,T,T,1,8,8,Trade and transportation,,
#F28188,424920,650.0563066547005,688.8011455219137,"Book, Periodical, and Newspaper Merchant Wholesalers ",2.5,701.0711870698469,334.468569947067,T,T,1,8,8,Trade and transportation,,
#F28188,424930,351.7914757853829,536.2994545130409,"Flower, Nursery Stock, and Florists' Supplies Merchant Wholesalers ",2.5,401.6365508900238,183.2082071996829,T,T,1,8,8,Trade and transportation,,
#F28188,424940,396.5466478619661,436.70325796670033,Tobacco and Tobacco Product Merchant Wholesalers ,2.5,448.42448613537215,84.17431565037455,T,T,1,8,8,Trade and transportation,,
#F28188,424950,562.4949388650826,718.3202695034122,"Paint, Varnish, and Supplies Merchant Wholesalers ",2.5,612.9735517896919,365.22617071131054,T,T,1,8,8,Trade and transportation,,
#F28188,424990,520.4666135641511,391.2067141005494,Other Miscellaneous Nondurable Goods Merchant Wholesalers ,2.5,571.1830183783535,37.832166282585064,T,T,1,8,8,Trade and transportation,,
#F28188,425120,693.7538145008688,591.3374430298778,Wholesale Trade Agents and Brokers ,2.5,745.6462683127157,238.23598074872638,T,T,1,8,8,Trade and transportation,,
#F28188,441110,644.2741386951192,573.1527648635782,New Car Dealers ,2.5,692.8583528845263,214.46375344295643,T,T,1,8,8,Trade and transportation,,
#F28188,441120,649.8784532601668,580.7254909279199,Used Car Dealers ,2.5,700.7989500808579,225.66055137962266,T,T,1,8,8,Trade and transportation,,
#F28188,441210,655.1883820119511,574.5841652774617,Recreational Vehicle Dealers ,2.5,706.580570536202,218.26036735692261,T,T,1,8,8,Trade and transportation,,
#F28188,441222,719.3529954557374,572.1156704944497,Boat Dealers ,2.5,768.1790444375076,218.0698241842449,T,T,1,8,8,Trade and transportation,,
#F28188,441228,643.4967081086162,583.3352921400923,"Motorcycle, ATV, and All Other Motor Vehicle Dealers ",2.5,695.6494099277709,231.53982438104697,T,T,1,8,8,Trade and transportation,,
#F28188,441310,632.5611562815063,587.891067695692,Automotive Parts and Accessories Stores ,2.5,678.3025557679844,234.68727497843415,T,T,1,8,8,Trade and transportation,,
#F28188,441320,678.267080022902,605.1935211726492,Tire Dealers ,2.5,729.0278322255306,249.80706269828823,T,T,1,8,8,Trade and transportation,,
#F28188,442110,483.06953922207884,515.971997252948,Furniture Stores ,2.5,530.9464957149387,164.07316256240128,T,T,1,8,8,Trade and transportation,,
#F28188,442210,485.7778962067992,540.4391417365935,Floor Covering Stores ,2.5,534.3027757982468,188.8758280013035,T,T,1,8,8,Trade and transportation,,
#F28188,442291,488.73395842708914,681.2009696491791,Window Treatment Stores ,2.5,539.2886608360496,328.5211938276918,T,T,1,8,8,Trade and transportation,,
#F28188,442299,497.8076906955267,490.38958669334465,All Other Home Furnishings Stores ,2.5,544.5118536410989,138.3293600808151,T,T,1,8,8,Trade and transportation,,
#F28188,443141,507.7404665725279,489.44385022405555,Household Appliance Stores ,2.5,557.5518785636497,134.41248162013318,T,T,1,8,8,Trade and transportation,,
#F28188,443142,561.228705762772,369.39973317072315,Electronics Stores ,2.5,612.0298609363871,16.46427498812744,T,T,1,8,8,Trade and transportation,,
#F28188,444110,496.0284262131718,557.2921136354289,Home Centers ,2.5,545.1182474127128,202.60940156261,T,T,1,8,8,Trade and transportation,,
#F28188,444120,500.51186127909347,566.4725557820774,Paint and Wallpaper Stores ,2.5,550.8669802506699,215.17439808317147,T,T,1,8,8,Trade and transportation,,
#F28188,444130,492.1351794985214,532.8738022956061,Hardware Stores ,2.5,543.2368323664734,178.5092274659411,T,T,1,8,8,Trade and transportation,,
#F28188,444190,498.69572907373083,710.5725053537438,Other Building Material Dealers ,2.5,547.7988477358897,358.0447813183187,T,T,1,8,8,Trade and transportation,,
#F28188,444210,671.4748879335485,573.4372305559336,Outdoor Power Equipment Stores ,2.5,722.388479433122,219.72143549791932,T,T,1,8,8,Trade and transportation,,
#F28188,444220,387.57127974532216,516.0481205239973,"Nursery, Garden Center, and Farm Supply Stores ",2.5,438.54538767325505,162.3910658888588,T,T,1,8,8,Trade and transportation,,
#F28188,445110,453.2310555283888,420.43183365220983,Supermarkets and Other Grocery (except Convenience) Stores ,2.5,504.89270111024274,68.16526390927996,T,T,1,8,8,Trade and transportation,,
#F28188,445120,663.4221033481512,438.43823702477516,Convenience Stores ,2.5,713.092223632121,84.21463789101632,T,T,1,8,8,Trade and transportation,,
#F28188,445210,411.0732234778819,429.68830430616595,Meat Markets ,2.5,462.1085150502984,75.64705635593938,T,T,1,8,8,Trade and transportation,,
#F28188,445220,311.8414321097391,491.33003923059357,Fish and Seafood Markets ,2.5,361.68438533028433,138.22082928736722,T,T,1,8,8,Trade and transportation,,
#F28188,445230,431.2205479797519,424.8804069931863,Fruit and Vegetable Markets ,2.5,481.1338664260138,73.66226506269064,T,T,1,8,8,Trade and transportation,,
#F28188,445291,376.9468184297162,394.46377027071776,Baked Goods Stores ,2.5,426.71397099085675,40.91915800756925,T,T,1,8,8,Trade and transportation,,
#F28188,445292,417.4775595253913,405.94860553944017,Confectionery and Nut Stores ,2.5,466.19727143519157,50.964716375239256,T,T,1,8,8,Trade and transportation,,
#F28188,445299,444.39915796181333,416.4373798973132,All Other Specialty Food Stores ,2.5,492.13770229418867,63.845585241731726,T,T,1,8,8,Trade and transportation,,
#F28188,445310,446.5711863782533,406.8190379505915,"Beer, Wine, and Liquor Stores ",2.5,497.46756276552713,51.34789897935321,T,T,1,8,8,Trade and transportation,,
#F28188,446110,546.9512162631769,453.80371371736203,Pharmacies and Drug Stores ,2.5,596.6906017568327,102.5234047682523,T,T,1,8,8,Trade and transportation,,
#F28188,446120,567.8217389073691,467.2132006104589,"Cosmetics, Beauty Supplies, and Perfume Stores ",2.5,616.0642017279666,115.9153154265922,T,T,1,8,8,Trade and transportation,,
#F28188,446130,944.0894251566125,541.4539039147013,Optical Goods Stores ,2.5,993.6438397681551,188.77978740567028,T,T,1,8,8,Trade and transportation,,
#F28188,446191,882.7813528832502,413.7700795153931,Food (Health) Supplement Stores ,2.5,932.3776754387246,63.561868097429176,T,T,1,8,8,Trade and transportation,,
#F28188,446199,948.9982135606832,495.58855163139043,All Other Health and Personal Care Stores ,2.5,999.0317345982112,141.34464672891207,T,T,1,8,8,Trade and transportation,,
#F28188,447110,695.9537052879404,430.37957524927606,Gasoline Stations with Convenience Stores ,2.5,745.0645109464889,78.18104137108305,T,T,1,8,8,Trade and transportation,,
#F28188,447190,620.0829095203285,573.2683850694435,Other Gasoline Stations ,2.5,670.65045907876,218.7179009377543,T,T,1,8,8,Trade and transportation,,
#F28188,448110,536.0709651975222,515.1843253076025,Men's Clothing Stores ,2.5,584.9610581555484,162.91439465614548,T,T,1,8,8,Trade and transportation,,
#F28188,448120,541.3708884539525,492.19662071339366,Women's Clothing Stores ,2.5,594.364982509214,135.80869133757153,T,T,1,8,8,Trade and transportation,,
#F28188,448130,530.9348071197581,497.0578459803341,Children's and Infants' Clothing Stores ,2.5,580.2806409083555,140.53376630950623,T,T,1,8,8,Trade and transportation,,
#F28188,448140,516.0354864555956,507.1825129680393,Family Clothing Stores ,2.5,563.4843480487136,152.27807093009946,T,T,1,8,8,Trade and transportation,,
#F28188,448150,544.2935411927892,501.43356094172765,Clothing Accessories Stores ,2.5,596.8690327587142,148.20828391022815,T,T,1,8,8,Trade and transportation,,
#F28188,448190,603.5163971078507,488.4781016366215,Other Clothing Stores ,2.5,652.2499372357668,136.60448156264826,T,T,1,8,8,Trade and transportation,,
#F28188,448210,524.3210917652348,524.7241829603139,Shoe Stores ,2.5,576.5621052796859,173.4634654989639,T,T,1,8,8,Trade and transportation,,
#F28188,448310,557.7179272061364,482.3677329598569,Jewelry Stores ,2.5,608.6019254810996,128.91484238896774,T,T,1,8,8,Trade and transportation,,
#F28188,448320,535.4654120024621,505.778117465656,Luggage and Leather Goods Stores ,2.5,584.4326692851615,153.87374552584603,T,T,1,8,8,Trade and transportation,,
#F28188,451110,590.2156126506229,492.09122676286444,Sporting Goods Stores ,2.5,638.8631955239449,139.26418153346685,T,T,1,8,8,Trade and transportation,,
#F28188,451120,526.3327787003119,464.5081991715236,"Hobby, Toy, and Game Stores ",2.5,577.1211117261983,106.76078451490832,T,T,1,8,8,Trade and transportation,,
#F28188,451130,510.31432602509517,515.2434535575977,"Sewing, Needlework, and Piece Goods Stores ",2.5,557.0099849803854,164.28929211894902,T,T,1,8,8,Trade and transportation,,
#F28188,451140,676.9618345061609,386.45229274758947,Musical Instrument and Supplies Stores ,2.5,728.3756495368917,31.44107816065259,T,T,1,8,8,Trade and transportation,,
#F28188,451211,520.725285161141,429.5312558923121,Book Stores ,2.5,573.525314266061,76.59523281006159,T,T,1,8,8,Trade and transportation,,
#F28188,451212,502.8791800714876,424.8992524791598,News Dealers and Newsstands ,2.5,549.8717989613282,70.39704918239939,T,T,1,8,8,Trade and transportation,,
#F28188,452210,474.4231776626899,414.37079169856065,Department Stores ,2.5,522.7329562617571,59.177044759226405,T,T,1,8,8,Trade and transportation,,
#F28188,452311,739.61948821598,523.7746041177608,Warehouse Clubs and Supercenters ,2.5,790.5470812064001,170.61923255355595,T,T,1,8,8,Trade and transportation,,
#F28188,452319,507.6568169539945,394.63165749895654,All Other General Merchandise Stores ,2.5,556.6497888294003,41.690324541164685,T,T,1,8,8,Trade and transportation,,
#F28188,453110,376.749553160182,521.3374622044839,Florists ,2.5,425.4749325192748,168.78528709501484,T,T,1,8,8,Trade and transportation,,
#F28188,453210,518.1183489369026,441.9526874098661,Office Supplies and Stationery Stores ,2.5,568.648420215287,90.89828846361041,T,T,1,8,8,Trade and transportation,,
#F28188,453220,532.6682496094595,471.8028846386356,"Gift, Novelty, and Souvenir Stores ",2.5,582.1583209434963,119.49992417001603,T,T,1,8,8,Trade and transportation,,
#F28188,453310,547.7758619043103,443.84962421382096,Used Merchandise Stores ,2.5,597.800510979944,88.84025628330295,T,T,1,8,8,Trade and transportation,,
#F28188,453910,347.5528522238507,504.85805179314985,Pet and Pet Supplies Stores ,2.5,397.4818440618343,151.73120593895953,T,T,1,8,8,Trade and transportation,,
#F28188,453920,714.237143660572,381.47634816270573,Art Dealers ,2.5,762.9227111647477,27.200451707288387,T,T,1,8,8,Trade and transportation,,
#F28188,453930,610.2461016128675,570.6825468828418,Manufactured (Mobile) Home Dealers ,2.5,656.6753184790193,216.5036164633305,T,T,1,8,8,Trade and transportation,,
#F28188,453991,471.60334216669605,423.91292435431114,Tobacco Stores ,2.5,520.9995983069904,72.72499392187719,T,T,1,8,8,Trade and transportation,,
#F28188,453998,510.6659476121645,430.57874139469595,All Other Miscellaneous Store Retailers (except Tobacco Stores) ,2.5,559.705266609881,78.86031377573879,T,T,1,8,8,Trade and transportation,,
#F28188,454110,514.2952576535149,421.43749418736223,Electronic Shopping and Mail-Order Houses ,2.5,564.3490211914562,66.0094223608334,T,T,1,8,8,Trade and transportation,,
#F28188,454210,662.1399331361529,408.59249559150334,Vending Machine Operators ,2.5,708.0828672631719,56.20181749342945,T,T,1,8,8,Trade and transportation,,
#F28188,454310,613.0812222000184,580.3713666681712,Fuel Dealers ,2.5,661.5710103423745,229.76618051546563,T,T,1,8,8,Trade and transportation,,
#F28188,454390,484.35732523935263,414.2705204261888,Other Direct Selling Establishments ,2.5,535.8579960514068,63.350721305154906,T,T,1,8,8,Trade and transportation,,
#F28188,481111,776.8815108652876,575.9975255905637,Scheduled Passenger Air Transportation ,2.5,825.227418596845,222.677808624371,T,T,1,8,8,Trade and transportation,,
#F28188,481112,765.978630730219,562.591177321612,Scheduled Freight Air Transportation ,2.5,816.2245166382851,208.13717508133684,T,T,1,8,8,Trade and transportation,,
#F28188,481211,796.9431429776557,573.5195871236903,Nonscheduled Chartered Passenger Air Transportation ,2.5,847.3371104822938,216.42385109061885,T,T,1,8,8,Trade and transportation,,
#F28188,481212,777.1157147648736,562.6037297191067,Nonscheduled Chartered Freight Air Transportation ,2.5,828.861590920369,208.1964911565563,T,T,1,8,8,Trade and transportation,,
#F28188,481219,786.3698167370894,579.3108304483163,Other Nonscheduled Air Transportation ,2.5,835.789997684944,225.24122638551324,T,T,1,8,8,Trade and transportation,,
#F28188,482111,744.9883442965534,555.3208647331229,Line-Haul Railroads ,2.5,795.3312529101462,199.7781189967498,T,T,1,8,8,Trade and transportation,,
#F28188,482112,758.227276980285,572.5363816923041,Short Line Railroads ,2.5,812.0139977938462,221.5815130656079,T,T,1,8,8,Trade and transportation,,
#F28188,483111,731.3588968766529,563.920798520366,Deep Sea Freight Transportation ,2.5,778.3814424435146,209.35719558319272,T,T,1,8,8,Trade and transportation,,
#F28188,483112,749.7905132309849,567.7281786071036,Deep Sea Passenger Transportation ,2.5,802.7064059784838,210.75427040799335,T,T,1,8,8,Trade and transportation,,
#F28188,483113,743.8915500504555,584.8696976374779,Coastal and Great Lakes Freight Transportation ,2.5,796.6685774232758,237.01636271528187,T,T,1,8,8,Trade and transportation,,
#F28188,483211,749.5244350624378,576.7982399623716,Inland Water Freight Transportation ,2.5,800.9563318903424,225.01158315383367,T,T,1,8,8,Trade and transportation,,
#F28188,483212,740.2326724872469,574.2679567015498,Inland Water Passenger Transportation ,2.5,789.2387889830421,220.2737623385426,T,T,1,8,8,Trade and transportation,,
#F28188,484110,661.3119403915854,541.7338219298998,"General Freight Trucking, Local ",2.5,709.4761405862079,189.98008201371155,T,T,1,8,8,Trade and transportation,,
#F28188,484121,630.0971653834354,533.4846523275369,"General Freight Trucking, Long-Distance, Truckload ",2.5,676.5827741639025,179.99810395987112,T,T,1,8,8,Trade and transportation,,
#F28188,484122,758.4181166698135,541.6733146268215,"General Freight Trucking, Long-Distance, Less Than Truckload ",2.5,810.3167815800143,191.22550944843914,T,T,1,8,8,Trade and transportation,,
#F28188,484210,715.5630285810871,530.614996666046,Used Household and Office Goods Moving,2.5,764.3237198177194,174.40452378978844,T,T,1,8,8,Trade and transportation,,
#F28188,484220,747.9831711761581,510.6106247382066,"Specialized Freight (except Used Goods) Trucking, Local ",2.5,796.6806841771268,157.03644018201092,T,T,1,8,8,Trade and transportation,,
#F28188,484230,757.4799585469073,512.8491250276708,"Specialized Freight (except Used Goods) Trucking, Long-Distance ",2.5,809.8047863975244,160.04002831580016,T,T,1,8,8,Trade and transportation,,
#F28188,485111,680.5893520780165,537.5253363045526,Mixed Mode Transit Systems ,2.5,731.2400035347459,185.7042019901681,T,T,1,8,8,Trade and transportation,,
#F28188,485112,770.5423577702603,523.3784555447033,Commuter Rail Systems ,2.5,821.272184801397,170.98316843188263,T,T,1,8,8,Trade and transportation,,
#F28188,485113,746.4858378780181,493.55022469056087,Bus and Other Motor Vehicle Transit Systems ,2.5,798.7890213695885,138.49461365906114,T,T,1,8,8,Trade and transportation,,
#F28188,485119,779.4004079954607,463.547598223302,Other Urban Transit Systems ,2.5,827.6818789709263,109.22771905512533,T,T,1,8,8,Trade and transportation,,
#F28188,485210,664.8383785104145,523.8199415535663,Interurban and Rural Bus Transportation,2.5,713.3768950272364,171.23486301348194,T,T,1,8,8,Trade and transportation,,
#F28188,485310,680.7320670059307,527.3661735918379,Taxi Service ,2.5,734.2044577863885,172.98148799821567,T,T,1,8,8,Trade and transportation,,
#F28188,485320,729.2887965714918,492.4839100772496,Limousine Service,2.5,779.5866556864252,135.83587962007724,T,T,1,8,8,Trade and transportation,,
#F28188,485410,720.4700510156218,498.5915071768872,School and Employee Bus Transportation,2.5,768.2615320691631,144.25209659898144,T,T,1,8,8,Trade and transportation,,
#F28188,485510,714.2230724348392,510.11653024031034,Charter Bus Industry,2.5,763.1048526991943,158.41121338485692,T,T,1,8,8,Trade and transportation,,
#F28188,485999,671.8229786626749,531.1697914571866,All Other Transit and Ground Passenger Transportation ,2.5,721.5515565003343,177.9357132257795,T,T,1,8,8,Trade and transportation,,
#F28188,486110,722.6070562749411,581.4618190420167,Pipeline Transportation of Crude Oil,2.5,768.2688251838289,231.98163559448483,T,T,1,8,8,Trade and transportation,,
#F28188,486210,740.7898856499988,564.1423510702828,Pipeline Transportation of Natural Gas,2.5,789.0048685464783,209.36715474152768,T,T,1,8,8,Trade and transportation,,
#F28188,486910,734.5749014525691,583.2441434734243,Pipeline Transportation of Refined Petroleum Products,2.5,784.7754063575292,234.42083034413062,T,T,1,8,8,Trade and transportation,,
#F28188,486990,730.0262690595692,574.7194244635625,All Other Pipeline Transportation,2.5,778.7906666312269,222.2144269224037,T,T,1,8,8,Trade and transportation,,
#F28188,487110,756.0309700322015,478.9205317585592,"Scenic and Sightseeing Transportation, Land",2.5,807.8617817013703,126.38481626047502,T,T,1,8,8,Trade and transportation,,
#F28188,487210,746.9425481030065,475.6640352544116,"Scenic and Sightseeing Transportation, Water",2.5,795.0331142613552,121.88674072389705,T,T,1,8,8,Trade and transportation,,
#F28188,487990,765.7729556927871,441.6878022493174,"Scenic and Sightseeing Transportation, Other",2.5,815.7103722095723,88.56760021813237,T,T,1,8,8,Trade and transportation,,
#F28188,488111,821.8658991293132,583.4987593006712,Air Traffic Control,2.5,873.0225929681344,230.85714392808416,T,T,1,8,8,Trade and transportation,,
#F28188,488119,780.7363049311177,587.4044145146246,Other Airport Operations ,2.5,829.4147131326775,237.03350494466238,T,T,1,8,8,Trade and transportation,,
#F28188,488190,800.9322385786891,592.4995144495489,Other Support Activities for Air Transportation,2.5,851.8230479609251,243.21964188150898,T,T,1,8,8,Trade and transportation,,
#F28188,488210,727.2839215418363,551.3408271991347,Support Activities for Rail Transportation,2.5,779.3014057190629,197.67430355798786,T,T,1,8,8,Trade and transportation,,
#F28188,488310,749.2713911149903,522.2468496743904,Port and Harbor Operations,2.5,799.3703486910424,167.93964047245302,T,T,1,8,8,Trade and transportation,,
#F28188,488320,638.2959254196683,539.6556459862677,Marine Cargo Handling,2.5,688.0086878334357,190.38071100585205,T,T,1,8,8,Trade and transportation,,
#F28188,488330,708.0975164691339,567.799907956637,Navigational Services to Shipping ,2.5,755.8882143038239,214.20620967879267,T,T,1,8,8,Trade and transportation,,
#F28188,488390,755.0399289067384,532.0951741831796,Other Support Activities for Water Transportation,2.5,807.7541016580739,179.8866508304127,T,T,1,8,8,Trade and transportation,,
#F28188,488410,683.9307964701185,591.8178784886521,Motor Vehicle Towing,2.5,732.1405020829992,237.03451311366882,T,T,1,8,8,Trade and transportation,,
#F28188,488490,700.0190566957339,548.6205657861278,Other Support Activities for Road Transportation ,2.5,750.3159408486622,198.29298526856977,T,T,1,8,8,Trade and transportation,,
#F28188,488510,670.9048470930782,540.9033782538631,Freight Transportation Arrangement ,2.5,720.6662381675977,191.5481742121638,T,T,1,8,8,Trade and transportation,,
#F28188,488991,653.1261779414862,519.0071662258188,Packing and Crating ,2.5,705.9385847916863,163.62419260564678,T,T,1,8,8,Trade and transportation,,
#F28188,488999,643.6887858444081,521.8138258041539,All Other Support Activities for Transportation ,2.5,690.0609614931053,168.03636307565716,T,T,1,8,8,Trade and transportation,,
#F28188,491110,748.5836497752487,539.5090164514658,Postal Service,2.5,796.3265231951032,186.23038921108113,T,T,1,8,8,Trade and transportation,,
#F28188,492110,710.0317093457355,540.0211906123677,Couriers and Express Delivery Services,2.5,759.4641405047332,187.14730396181776,T,T,1,8,8,Trade and transportation,,
#F28188,492210,740.9817783759886,501.2992630469793,Local Messengers and Local Delivery,2.5,791.3641541036985,146.99582964424758,T,T,1,8,8,Trade and transportation,,
#F28188,493110,691.2544958542258,540.7576110616335,General Warehousing and Storage ,2.5,743.0213779381355,185.98846584604232,T,T,1,8,8,Trade and transportation,,
#F28188,493120,639.3883644769456,530.391555585875,Refrigerated Warehousing and Storage,2.5,688.46598567446,179.00529874504852,T,T,1,8,8,Trade and transportation,,
#F28188,493130,717.5231045841884,553.0239818804987,Farm Product Warehousing and Storage,2.5,766.4449690215461,201.2566778732367,T,T,1,8,8,Trade and transportation,,
#F28188,493190,724.0499450793881,535.7046326901124,Other Warehousing and Storage,2.5,772.0717757487691,183.9941041843383,T,T,1,8,8,Trade and transportation,,
#D35162,511110,555.6818655921268,299.9408045578173,Newspaper Publishers ,2.5,601.8570772529687,-50.893543331978776,P,P,1,7,7,Professional and business services,,
#D35162,511120,565.8059250738638,304.25674005370263,Periodical Publishers ,2.5,614.7593522832003,-44.78508483925555,P,P,1,7,7,Professional and business services,,
#D35162,511130,562.888603025636,294.22732105416196,Book Publishers ,2.5,610.07285708295,-59.0910687599436,P,P,1,7,7,Professional and business services,,
#D35162,511140,574.7257579645342,286.3251475348324,Directory and Mailing List Publishers ,2.5,624.8511343204356,-72.43590050365788,P,P,1,7,7,Professional and business services,,
#D35162,511191,640.9299390301688,692.3825263259736,Greeting Card Publishers ,2.5,688.7488502812463,340.3198668511372,P,P,1,7,7,Professional and business services,,
#D35162,511199,571.2211988629223,296.00518574247116,All Other Publishers ,2.5,618.6081731751409,-57.54792508010212,P,P,1,7,7,Professional and business services,,
#D35162,511210,579.205081989961,313.201913826043,Software Publishers,2.5,627.3339745863068,-36.28653684713949,P,P,1,7,7,Professional and business services,,
#D35162,512110,645.5353696682564,300.63763343262025,Motion Picture and Video Production ,2.5,693.5959921932216,-55.796632565845655,P,P,1,7,7,Professional and business services,,
#D35162,512120,654.3745896195137,302.73926619118106,Motion Picture and Video Distribution,2.5,704.087703319674,-51.69946830779371,P,P,1,7,7,Professional and business services,,
#D35162,512131,667.9836876899885,326.73333579284207,Motion Picture Theaters (except Drive-Ins) ,2.5,717.7031315533666,-24.553567650222032,P,P,1,7,7,Professional and business services,,
#D35162,512132,694.2442611735102,343.1841387824442,Drive-In Motion Picture Theaters ,2.5,745.3899056589484,-12.864842309777977,P,P,1,7,7,Professional and business services,,
#D35162,512191,694.9225274595311,323.9290414915239,Teleproduction and Other Postproduction Services ,2.5,743.5420451111652,-29.037947873856716,P,P,1,7,7,Professional and business services,,
#D35162,512199,639.9516808270698,308.2458415203408,Other Motion Picture and Video Industries ,2.5,688.8051239194226,-44.62329273111639,P,P,1,7,7,Professional and business services,,
#D35162,512230,709.5705133794728,323.2910403085054,Music Publishers,2.5,757.3114412447685,-30.561652561821056,P,P,1,7,7,Professional and business services,,
#D35162,512240,719.3329953522621,322.21351783192245,Sound Recording Studios,2.5,769.2107966270326,-34.063078181510306,P,P,1,7,7,Professional and business services,,
#D35162,512250,666.3135734696626,315.92779951560675,Record Production and Distribution,2.5,718.0497439673752,-39.52115075144854,P,P,1,7,7,Professional and business services,,
#D35162,512290,715.3326389928925,331.2131525948565,Other Sound Recording Industries,2.5,762.3636701456568,-20.353086420278334,P,P,1,7,7,Professional and business services,,
#D35162,515111,656.100971090042,321.00665342236624,Radio Networks ,2.5,707.302108879591,-27.014046213424315,P,P,1,7,7,Professional and business services,,
#D35162,515112,724.9618748070008,332.41479778380267,Radio Stations ,2.5,776.5117890253719,-20.619311327645867,P,P,1,7,7,Professional and business services,,
#D35162,515120,657.7544150989627,311.21999523463245,Television Broadcasting,2.5,709.0241705707671,-41.95790152505708,P,P,1,7,7,Professional and business services,,
#D35162,515210,677.4059466953977,318.42153743126244,Cable and Other Subscription Programming,2.5,729.7498073442927,-35.59393036831936,P,P,1,7,7,Professional and business services,,
#D35162,517311,681.701639807005,299.2006437585269,Wired Telecommunications Carriers ,2.5,729.8904769004363,-51.8452915340722,P,P,1,7,7,Professional and business services,,
#D35162,517312,642.7747800851159,325.71313774633046,Wireless Telecommunications Carriers (except Satellite),2.5,693.6875931846555,-26.42630224509912,P,P,1,7,7,Professional and business services,,
#D35162,517410,816.6234931693211,373.5387023034373,Satellite Telecommunications,2.5,866.5691247354547,20.411640687435803,P,P,1,7,7,Professional and business services,,
#D35162,517911,608.3078608169402,347.4928033872585,Telecommunications Resellers ,2.5,658.1701234507882,-5.658180071894767,P,P,1,7,7,Professional and business services,,
#D35162,517919,585.575858239424,362.35138619705657,All Other Telecommunications ,2.5,636.6180415167667,7.7923378618870265,P,P,1,7,7,Professional and business services,,
#D35162,518210,583.07682148026,288.8352459348403,"Data Processing, Hosting, and Related Services",2.5,634.0353627519321,-64.06751699257823,P,P,1,7,7,Professional and business services,,
#D35162,519110,591.7722689529029,289.2046216590242,News Syndicates,2.5,639.9904935074366,-67.07494720599001,P,P,1,7,7,Professional and business services,,
#D35162,519120,847.7857573330061,337.770769803606,Libraries and Archives ,2.5,898.2949619539027,-16.355021383011586,P,P,1,7,7,Professional and business services,,
#D35162,519130,581.9210370293223,304.39973721054946,Internet Publishing and Broadcasting and Web Search Portals,2.5,631.0983297550771,-45.95281620800648,P,P,1,7,7,Professional and business services,,
#D35162,519190,599.1253104834688,276.51717374819225,All Other Information Services,2.5,647.5523686467416,-81.2492048059511,P,P,1,7,7,Professional and business services,,
#FFC135,521110,755.6742146788683,164.25947349662903,Monetary Authorities-Central Bank,2.5,804.754929159281,-194.72682258000762,F,F,1,2,2,Financial activities,,
#FFC135,522110,730.699450950498,185.93828933890688,Commercial Banking ,2.5,780.2649129315449,-169.4838551123554,F,F,1,2,2,Financial activities,,
#FFC135,522120,773.0159490358901,169.5373925793355,Savings Institutions ,2.5,826.1625861533166,-183.4329785541517,F,F,1,2,2,Financial activities,,
#FFC135,522130,763.7808904696174,165.79891835136704,Credit Unions ,2.5,814.8876667831038,-190.41633290626214,F,F,1,2,2,Financial activities,,
#FFC135,522210,684.5184566742419,285.9876413767738,Credit Card Issuing ,2.5,735.3135786604236,-68.6826800257188,F,F,1,2,2,Financial activities,,
#FFC135,522220,738.7658358139195,168.5943403151083,Sales Financing ,2.5,786.2934362158991,-190.19005574242135,F,F,1,2,2,Financial activities,,
#FFC135,522291,753.6470178042896,174.37862000717706,Consumer Lending ,2.5,805.3754335059842,-179.86543468138015,F,F,1,2,2,Financial activities,,
#FFC135,522292,778.2567992262674,197.69251628146847,Real Estate Credit ,2.5,826.0555833707773,-153.98887613894087,F,F,1,2,2,Financial activities,,
#FFC135,522293,748.0492073961744,168.05251037362805,International Trade Financing ,2.5,796.8566860336011,-187.20610510265212,F,F,1,2,2,Financial activities,,
#FFC135,522294,728.0721530573733,212.81444735872302,Secondary Market Financing ,2.5,775.893888295081,-137.25837231399552,F,F,1,2,2,Financial activities,,
#FFC135,522298,719.5207165228162,182.04306553861943,All Other Nondepository Credit Intermediation ,2.5,766.3782641723446,-174.07300307296978,F,F,1,2,2,Financial activities,,
#FFC135,522310,752.1932007709773,183.15505125796395,Mortgage and Nonmortgage Loan Brokers ,2.5,803.8269794196239,-168.73984283567484,F,F,1,2,2,Financial activities,,
#FFC135,522320,722.8533395826961,190.74220930750695,"Financial Transactions Processing, Reserve, and Clearinghouse Activities ",2.5,770.7486025966721,-164.3998915594523,F,F,1,2,2,Financial activities,,
#FFC135,522390,762.0047778346079,174.98134973741836,Other Activities Related to Credit Intermediation ,2.5,814.6432361647963,-178.19665780497715,F,F,1,2,2,Financial activities,,
#FFC135,523110,754.860277379943,196.69837553603853,Investment Banking and Securities Dealing ,2.5,807.0097903409089,-154.83189365331563,F,F,1,2,2,Financial activities,,
#FFC135,523120,739.1233715716546,184.58221286541624,Securities Brokerage ,2.5,789.6105057030708,-168.42333810321517,F,F,1,2,2,Financial activities,,
#FFC135,523130,517.9460670504129,471.58538865436014,Commodity Contracts Dealing ,2.5,566.408221050034,116.73779666046906,F,F,1,2,2,Financial activities,,
#FFC135,523140,742.5204561491871,200.80760176554685,Commodity Contracts Brokerage ,2.5,795.8294505401531,-146.83965461478033,F,F,1,2,2,Financial activities,,
#FFC135,523210,745.4780249591685,190.96883832530804,Securities and Commodity Exchanges,2.5,795.6013519249814,-160.73605355760054,F,F,1,2,2,Financial activities,,
#FFC135,523910,713.7489860369699,196.80542779792384,Miscellaneous Intermediation ,2.5,759.4595652715101,-156.7728410386081,F,F,1,2,2,Financial activities,,
#FFC135,523920,731.4551096342948,195.23795494893656,Portfolio Management ,2.5,781.8282602232923,-160.41252827938084,F,F,1,2,2,Financial activities,,
#FFC135,523930,733.5379682334462,205.15035244655127,Investment Advice ,2.5,783.7487452028204,-145.62943063115904,F,F,1,2,2,Financial activities,,
#FFC135,523991,735.6853724589903,219.19481307609684,"Trust, Fiduciary, and Custody Activities ",2.5,787.6341275072516,-131.8283697197266,F,F,1,2,2,Financial activities,,
#FFC135,523999,744.4846800328771,176.64257782694477,Miscellaneous Financial Investment Activities ,2.5,793.5921680452847,-176.69497597655695,F,F,1,2,2,Financial activities,,
#FFC135,524113,798.2845322045271,181.80322529511486,Direct Life Insurance Carriers ,2.5,851.3919999792678,-172.88826891428866,F,F,1,2,2,Financial activities,,
#FFC135,524114,809.9716339474752,200.05927772329127,Direct Health and Medical Insurance Carriers ,2.5,860.6803014251332,-154.73761355705784,F,F,1,2,2,Financial activities,,
#FFC135,524126,793.3073096483677,190.00071027588368,Direct Property and Casualty Insurance Carriers ,2.5,842.5483055102835,-163.40478681933342,F,F,1,2,2,Financial activities,,
#FFC135,524127,801.9942938935286,206.8376641228263,Direct Title Insurance Carriers ,2.5,852.7054073038712,-144.8677021311252,F,F,1,2,2,Financial activities,,
#FFC135,524128,782.5847486480052,189.0550867141275,"Other Direct Insurance (except Life, Health, and Medical) Carriers ",2.5,830.5694527167185,-165.69763858973076,F,F,1,2,2,Financial activities,,
#FFC135,524130,795.5207512115478,199.3681133759294,Reinsurance Carriers ,2.5,845.8773015218092,-154.201519555431,F,F,1,2,2,Financial activities,,
#FFC135,524210,762.4804045357866,184.9431303806128,Insurance Agencies and Brokerages ,2.5,815.1266364618518,-164.0411913157293,F,F,1,2,2,Financial activities,,
#FFC135,524291,785.9983398564377,206.85857999037015,Claims Adjusting ,2.5,835.2264798778444,-144.39392962309353,F,F,1,2,2,Financial activities,,
#FFC135,524292,848.2949980193964,234.19974427406768,Third Party Administration of Insurance and Pension Funds ,2.5,898.2555636491527,-118.98555709557999,F,F,1,2,2,Financial activities,,
#FFC135,524298,824.0817969522933,202.98863033808678,All Other Insurance Related Activities ,2.5,874.8448640949871,-150.21159520231257,F,F,1,2,2,Financial activities,,
#FFC135,525110,828.2901183145506,228.87582650112225,Pension Funds ,2.5,877.812049631354,-122.94910754938336,F,F,1,2,2,Financial activities,,
#FFC135,525120,786.7029939583831,180.3560441618036,Health and Welfare Funds ,2.5,837.6330860338076,-176.01430355719833,F,F,1,2,2,Financial activities,,
#FFC135,525190,832.4823393678261,218.01499007499044,Other Insurance Funds ,2.5,883.1362303956545,-136.26511451912796,F,F,1,2,2,Financial activities,,
#FFC135,525910,723.0945870749986,200.934951740301,Open-End Investment Funds ,2.5,772.2884753601335,-150.54921182181363,F,F,1,2,2,Financial activities,,
#FFC135,525920,759.2106746866862,217.42375942919304,"Trusts, Estates, and Agency Accounts ",2.5,808.9507426896334,-137.8926235992979,F,F,1,2,2,Financial activities,,
#FFC135,525990,714.1832191832009,206.83009273665525,Other Financial Vehicles ,2.5,762.2717196513325,-142.32729414314915,F,F,1,2,2,Financial activities,,
#FFC135,531110,556.8376597340986,402.78721463816936,Lessors of Residential Buildings and Dwellings ,2.5,606.8980121600677,51.039890346265906,F,F,1,2,2,Financial activities,,
#FFC135,531120,712.8686416169506,358.07122938421963,Lessors of Nonresidential Buildings (except Miniwarehouses) ,2.5,763.326681320009,2.5643640117086974,F,F,1,2,2,Financial activities,,
#FFC135,531130,730.3914576880455,519.7301967686057,Lessors of Miniwarehouses and Self-Storage Units ,2.5,777.8600873188796,166.49299194445948,F,F,1,2,2,Financial activities,,
#FFC135,531190,544.837667441481,376.4133262240001,Lessors of Other Real Estate Property ,2.5,594.2561039855512,25.28836324727191,F,F,1,2,2,Financial activities,,
#FFC135,531210,548.42603561405,367.11166416278814,Offices of Real Estate Agents and Brokers,2.5,597.6997539007759,12.36919695479948,F,F,1,2,2,Financial activities,,
#FFC135,531311,787.13189875905,416.7220464521812,Residential Property Managers ,2.5,836.6595307256666,64.11364150395842,F,F,1,2,2,Financial activities,,
#FFC135,531312,547.2116054245018,405.86711598315105,Nonresidential Property Managers ,2.5,595.127363229691,55.221836416270044,F,F,1,2,2,Financial activities,,
#FFC135,531320,810.5417234740248,229.02550218719153,Offices of Real Estate Appraisers ,2.5,862.1943210763098,-121.36562061564894,F,F,1,2,2,Financial activities,,
#FFC135,531390,815.6200539433471,257.9543939515701,Other Activities Related to Real Estate ,2.5,865.5581002808749,-96.37046145959214,F,F,1,2,2,Financial activities,,
#FFC135,532111,648.6000181474211,534.1073815125477,Passenger Car Rental ,2.5,701.8569957101214,179.77418877599564,F,F,1,2,2,Financial activities,,
#FFC135,532112,674.0541012275139,519.8217099506237,Passenger Car Leasing ,2.5,723.8088937704936,163.60439985608696,F,F,1,2,2,Financial activities,,
#FFC135,532120,645.3660426704395,512.6318353917533,"Truck, Utility Trailer, and RV (Recreational Vehicle) Rental and Leasing ",2.5,695.1155580665603,159.09050786085018,F,F,1,2,2,Financial activities,,
#FFC135,532210,583.1245729685005,385.6275511296816,Consumer Electronics and Appliances Rental,2.5,635.3091415757135,34.80568411052036,F,F,1,2,2,Financial activities,,
#FFC135,532281,671.6828736600171,470.4401538748585,Formal Wear and Costume Rental,2.5,724.8972880072134,116.08731107773875,F,F,1,2,2,Financial activities,,
#FFC135,532282,667.825149955804,368.3042345183515,Video Tape and Disc Rental,2.5,717.2004253242989,13.339330627824639,F,F,1,2,2,Financial activities,,
#FFC135,532283,942.6106672589686,473.76347181976274,Home Health Equipment Rental ,2.5,992.5626478101923,120.77277792140742,F,F,1,2,2,Financial activities,,
#FFC135,532284,714.0721427352576,457.6188337315437,Recreational Goods Rental ,2.5,762.7349450066545,103.08103681689424,F,F,1,2,2,Financial activities,,
#FFC135,532289,688.0660990442981,409.4198449151783,All Other Consumer Goods Rental ,2.5,739.2936126147251,59.480402340239934,F,F,1,2,2,Financial activities,,
#FFC135,532310,693.3205970524702,468.10642564039443,General Rental Centers,2.5,741.7840619304407,113.5926846537534,F,F,1,2,2,Financial activities,,
#FFC135,532411,797.0446663914421,583.4121980831644,"Commercial Air, Rail, and Water Transportation Equipment Rental and Leasing ",2.5,846.5444329261002,230.76482186368153,F,F,1,2,2,Financial activities,,
#FFC135,532412,581.687476782096,452.2635462672356,"Construction, Mining, and Forestry Machinery and Equipment Rental and Leasing ",2.5,634.3394641479226,99.08246489435042,F,F,1,2,2,Financial activities,,
#FFC135,532420,602.8672036263287,400.4730708238554,Office Machinery and Equipment Rental and Leasing,2.5,652.9296367672973,46.71404027434033,F,F,1,2,2,Financial activities,,
#FFC135,532490,616.8782041439569,474.30650218699606,Other Commercial and Industrial Machinery and Equipment Rental and Leasing ,2.5,667.9007139134336,118.32821140392971,F,F,1,2,2,Financial activities,,
#FFC135,533110,680.0661403866416,263.8592285308898,Lessors of Nonfinancial Intangible Assets (except Copyrighted Works),2.5,729.9625435945717,-89.336043841255,F,F,1,2,2,Financial activities,,
#D35162,541110,670.358603357688,250.4293250985093,Offices of Lawyers,2.5,721.1802233188065,-103.37531749842594,P,P,1,7,7,Professional and business services,,
#D35162,541120,795.5942532253009,239.07514467782863,Offices of Notaries,2.5,847.4040806105904,-113.03489423069536,P,P,1,7,7,Professional and business services,,
#D35162,541191,804.8522431748837,221.0864345720293,Title Abstract and Settlement Offices ,2.5,856.2507878696783,-133.39396911288492,P,P,1,7,7,Professional and business services,,
#D35162,541199,770.2719489750212,248.25689846773594,All Other Legal Services ,2.5,819.7392302467052,-102.50174548697616,P,P,1,7,7,Professional and business services,,
#D35162,541211,771.6397570065025,238.3837603069902,Offices of Certified Public Accountants ,2.5,821.9648398663876,-114.0651831861468,P,P,1,7,7,Professional and business services,,
#D35162,541213,765.9838205738254,228.34863928853662,Tax Preparation Services ,2.5,816.693889345916,-126.86855910553804,P,P,1,7,7,Professional and business services,,
#D35162,541214,799.0522045262571,265.44375158182424,Payroll Services ,2.5,847.1343486127242,-90.46673330492244,P,P,1,7,7,Professional and business services,,
#D35162,541219,634.816295717801,256.5950537526991,Other Accounting Services ,2.5,681.69721872344,-98.15812811121164,P,P,1,7,7,Professional and business services,,
#D35162,541310,548.5289960428972,349.3321624409652,Architectural Services,2.5,598.4028947403893,-4.45267597441229,P,P,1,7,7,Professional and business services,,
#D35162,541320,354.3162017478726,571.956539418043,Landscape Architectural Services,2.5,403.4095966808053,220.45898466710983,P,P,1,7,7,Professional and business services,,
#D35162,541330,578.03967462216,332.2495467240965,Engineering Services,2.5,627.8662448001182,-20.49158252552265,P,P,1,7,7,Professional and business services,,
#D35162,541340,808.1627960995156,284.406527983761,Drafting Services,2.5,859.3320919971809,-66.08668022715902,P,P,1,7,7,Professional and business services,,
#D35162,541350,855.0479482558343,266.5570410312511,Building Inspection Services,2.5,904.4544962764103,-87.24604754752983,P,P,1,7,7,Professional and business services,,
#D35162,541360,842.0249551790168,277.3976560751178,Geophysical Surveying and Mapping Services,2.5,891.2261098784194,-76.4251303332017,P,P,1,7,7,Professional and business services,,
#D35162,541370,780.8100256754694,353.6430548716048,Surveying and Mapping (except Geophysical) Services,2.5,831.5381229556783,2.0004221080940603,P,P,1,7,7,Professional and business services,,
#D35162,541380,620.9436295978551,310.88862639147936,Testing Laboratories,2.5,671.4995304971993,-43.02592547181936,P,P,1,7,7,Professional and business services,,
#D35162,541410,625.0150576209232,343.5050783046115,Interior Design Services,2.5,672.124238750685,-9.80460720999247,P,P,1,7,7,Professional and business services,,
#D35162,541420,772.9369167324878,311.97064012682137,Industrial Design Services,2.5,821.084406234815,-40.673872512986975,P,P,1,7,7,Professional and business services,,
#D35162,541430,615.4909849128021,304.53166686841155,Graphic Design Services,2.5,663.0689966823822,-46.313797407956265,P,P,1,7,7,Professional and business services,,
#D35162,541490,659.066470724864,364.24289588307965,Other Specialized Design Services,2.5,706.5001879981828,10.657984184124338,P,P,1,7,7,Professional and business services,,
#D35162,541511,596.7661996836712,313.2538430275016,Custom Computer Programming Services ,2.5,647.6205431480237,-35.218923201351,P,P,1,7,7,Professional and business services,,
#D35162,541512,580.10354771339,295.9583515184323,Computer Systems Design Services ,2.5,632.9343539616806,-58.25135546319434,P,P,1,7,7,Professional and business services,,
#D35162,541513,588.3597200353215,308.12704370419794,Computer Facilities Management Services ,2.5,640.7503626073474,-44.76106192813369,P,P,1,7,7,Professional and business services,,
#D35162,541519,612.8557661439331,325.98021190700535,Other Computer Related Services,2.5,662.8795736573979,-23.544772779738686,P,P,1,7,7,Professional and business services,,
#D35162,541611,631.5789796017593,265.45893734005784,Administrative Management and General Management Consulting Services ,2.5,681.6231641871394,-84.83103002513278,P,P,1,7,7,Professional and business services,,
#D35162,541612,805.1897064069071,272.482286714695,Human Resources Consulting Services ,2.5,855.6816217458827,-81.2967947634934,P,P,1,7,7,Professional and business services,,
#D35162,541613,696.6026766048519,290.04088356935006,Marketing Consulting Services ,2.5,748.5509340440595,-65.16766147530892,P,P,1,7,7,Professional and business services,,
#D35162,541614,763.2689507011545,504.96945266451286,"Process, Physical Distribution, and Logistics Consulting Services ",2.5,813.9641936505559,149.46263501073503,P,P,1,7,7,Professional and business services,,
#D35162,541618,644.9746771320584,257.29860282417167,Other Management Consulting Services ,2.5,695.3108182248682,-98.27032454575253,P,P,1,7,7,Professional and business services,,
#D35162,541620,841.6486146344935,480.1744504498646,Environmental Consulting Services,2.5,897.6545160205418,127.7355470087243,P,P,1,7,7,Professional and business services,,
#D35162,541690,673.5506760100092,292.0671235639386,Other Scientific and Technical Consulting Services,2.5,724.2663313949132,-64.77182213402922,P,P,1,7,7,Professional and business services,,
#D35162,541714,935.7485636285776,489.44751910416693,Research and Development in Biotechnology (except Nanobiotechnology),2.5,984.6240431767947,135.27759723094226,P,P,1,7,7,Professional and business services,,
#D35162,541715,651.741223803326,286.4151831898028,"Research and Development in the Physical, Engineering, and Life Sciences (except Nanotechnology and Biotechnology) ",2.5,703.3328295759433,-66.5635882247744,P,P,1,7,7,Professional and business services,,
#D35162,541720,756.4694832290321,285.78053257969185,Research and Development in the Social Sciences and Humanities ,2.5,807.3417847538047,-65.7889609415208,P,P,1,7,7,Professional and business services,,
#D35162,541810,601.334385306574,286.17755754043986,Advertising Agencies,2.5,651.8207254611731,-68.86712454998978,P,P,1,7,7,Professional and business services,,
#D35162,541820,644.871119517971,275.7854455885556,Public Relations Agencies,2.5,692.4304757475894,-74.55019744080879,P,P,1,7,7,Professional and business services,,
#D35162,541830,702.7836955141364,310.21788434894313,Media Buying Agencies,2.5,753.7479908166326,-43.00934287313301,P,P,1,7,7,Professional and business services,,
#D35162,541840,615.7528367953117,293.29866037446766,Media Representatives,2.5,667.147225166063,-60.14675827697461,P,P,1,7,7,Professional and business services,,
#D35162,541850,647.951904215024,313.33138974066844,Outdoor Advertising,2.5,696.1760737309489,-40.37406518057742,P,P,1,7,7,Professional and business services,,
#D35162,541860,642.4231207943869,266.4098148838251,Direct Mail Advertising,2.5,694.6913283102014,-87.24777728084526,P,P,1,7,7,Professional and business services,,
#D35162,541870,720.6455447559524,465.0367184005663,Advertising Material Distribution Services,2.5,771.8227575088367,113.32939012938701,P,P,1,7,7,Professional and business services,,
#D35162,541890,607.6023169577576,298.3514595834962,Other Services Related to Advertising ,2.5,656.8023252750734,-54.810037092542984,P,P,1,7,7,Professional and business services,,
#D35162,541910,622.1581374874509,267.7899551789295,Marketing Research and Public Opinion Polling,2.5,671.0555988500856,-88.61221452414796,P,P,1,7,7,Professional and business services,,
#D35162,541921,628.5514349981235,314.5344366636763,"Photography Studios, Portrait ",2.5,679.2909346108044,-39.98024138903833,P,P,1,7,7,Professional and business services,,
#D35162,541922,613.1686479680061,315.9394826588517,Commercial Photography ,2.5,661.8204089053356,-37.25607815371992,P,P,1,7,7,Professional and business services,,
#D35162,541930,627.3495466380369,302.4072190333738,Translation and Interpretation Services,2.5,679.1948209080138,-52.36892426773878,P,P,1,7,7,Professional and business services,,
#D35162,541940,320.8240998124777,518.951607077492,Veterinary Services ,2.5,371.8550297999591,165.87610579512764,P,P,1,7,7,Professional and business services,,
#D35162,541990,620.439066628771,284.9381436304835,"All Other Professional, Scientific, and Technical Services",2.5,673.2541926108615,-70.53262474174373,P,P,1,7,7,Professional and business services,,
#D35162,551111,733.9171411743179,177.014303378649,Offices of Bank Holding Companies ,2.5,779.7616220621863,-178.1274711861453,P,P,1,7,7,Professional and business services,,
#D35162,551112,698.6045444331834,215.07930485383662,Offices of Other Holding Companies ,2.5,746.380783599468,-137.8336703449777,P,P,1,7,7,Professional and business services,,
#D35162,561110,639.1092122393508,248.05805224378238,Office Administrative Services,2.5,689.7080371960293,-108.18277963479962,P,P,1,7,7,Professional and business services,,
#D35162,561210,825.3408290161526,468.73322614510016,Facilities Support Services,2.5,872.2482131109882,111.32343497370726,P,P,1,7,7,Professional and business services,,
#D35162,561311,657.9626275813504,257.4699408076668,Employment Placement Agencies ,2.5,709.7264082671446,-94.94069150580223,P,P,1,7,7,Professional and business services,,
#D35162,561312,814.2552976782679,271.21391835607665,Executive Search Services ,2.5,867.5130702914535,-81.49171831375934,P,P,1,7,7,Professional and business services,,
#D35162,561320,735.7902468439786,291.0339018933046,Temporary Help Services,2.5,786.1943653954866,-61.73574395576378,P,P,1,7,7,Professional and business services,,
#D35162,561330,799.3957008278944,279.33195974587403,Professional Employer Organizations,2.5,848.4009775083155,-74.33340021069469,P,P,1,7,7,Professional and business services,,
#D35162,561410,776.0538889109212,287.2936766717345,Document Preparation Services,2.5,822.8395589479919,-65.67529352776118,P,P,1,7,7,Professional and business services,,
#D35162,561421,691.5553849400084,298.69645432004205,Telephone Answering Services ,2.5,741.5768299263826,-53.59686829164053,P,P,1,7,7,Professional and business services,,
#D35162,561422,751.1153162360113,277.55507224266745,Telemarketing Bureaus and Other Contact Centers ,2.5,799.9814932793628,-77.23588979886352,P,P,1,7,7,Professional and business services,,
#D35162,561431,724.9297637639366,282.0896476644302,Private Mail Centers ,2.5,774.340181498111,-71.50423750673252,P,P,1,7,7,Professional and business services,,
#D35162,561439,731.0357554251667,502.1289898678974,Other Business Service Centers (including Copy Shops) ,2.5,778.8569384862519,150.65759525782704,P,P,1,7,7,Professional and business services,,
#D35162,561440,756.0997958765753,226.93169683424557,Collection Agencies,2.5,803.6530814404581,-123.94991686831067,P,P,1,7,7,Professional and business services,,
#D35162,561450,794.9282957520137,222.84971913808752,Credit Bureaus,2.5,843.8897069966533,-130.90818526864555,P,P,1,7,7,Professional and business services,,
#D35162,561491,686.4483500961919,573.3965703398949,Repossession Services ,2.5,737.6889014013345,220.30857097422793,P,P,1,7,7,Professional and business services,,
#D35162,561492,720.0621667734939,242.4339323024122,Court Reporting and Stenotype Services ,2.5,769.9602643691144,-110.74894379034373,P,P,1,7,7,Professional and business services,,
#D35162,561499,608.3015099061437,273.59063124120286,All Other Business Support Services ,2.5,659.3121842174284,-78.55802286823382,P,P,1,7,7,Professional and business services,,
#D35162,561510,638.961292945783,501.7462514930586,Travel Agencies,2.5,687.3362461031251,148.8145129457651,P,P,1,7,7,Professional and business services,,
#D35162,561520,608.201262434405,505.7483711451113,Tour Operators,2.5,658.055051304518,152.6334020249721,P,P,1,7,7,Professional and business services,,
#D35162,561591,796.8189224786768,416.7874353743598,Convention and Visitors Bureaus ,2.5,849.1505808672152,63.64537009089733,P,P,1,7,7,Professional and business services,,
#D35162,561599,701.133289293764,474.1115931229197,All Other Travel Arrangement and Reservation Services ,2.5,752.5486464975435,122.14952367933252,P,P,1,7,7,Professional and business services,,
#D35162,561611,787.2245835716029,234.2712100002078,Investigation Services ,2.5,835.8846100577172,-117.94399975604388,P,P,1,7,7,Professional and business services,,
#D35162,561612,721.8840760642099,418.0409252105225,Security Guards and Patrol Services ,2.5,771.193375629206,67.48840137056524,P,P,1,7,7,Professional and business services,,
#D35162,561613,814.4817462623573,329.5171040362172,Armored Car Services ,2.5,865.4740378738728,-23.895381910039966,P,P,1,7,7,Professional and business services,,
#D35162,561621,757.6994992846232,387.29913703461216,Security Systems Services (except Locksmiths) ,2.5,808.2816965227782,34.0577756474173,P,P,1,7,7,Professional and business services,,
#D35162,561622,755.6062741021533,809.1992631466846,Locksmiths ,2.5,806.629862157393,454.14381785056764,P,P,1,7,7,Professional and business services,,
#D35162,561710,688.0341817989074,483.0476417768659,Exterminating and Pest Control Services,2.5,738.5183215557514,129.09269520668073,P,P,1,7,7,Professional and business services,,
#D35162,561720,620.0663436502778,448.57947309130475,Janitorial Services ,2.5,669.9211973377958,95.4525738510924,P,P,1,7,7,Professional and business services,,
#D35162,561730,358.69564946358895,562.5669178981668,Landscaping Services,2.5,409.281228285488,207.885166773093,P,P,1,7,7,Professional and business services,,
#D35162,561740,663.9392447613137,477.15647648288575,Carpet and Upholstery Cleaning Services,2.5,715.7316134678919,124.66265024693895,P,P,1,7,7,Professional and business services,,
#D35162,561790,665.6033351942331,451.1992649028005,Other Services to Buildings and Dwellings ,2.5,716.2078943878824,98.30594116853668,P,P,1,7,7,Professional and business services,,
#D35162,561910,673.7397920023208,707.9572099866056,Packaging and Labeling Services,2.5,725.2270450424213,353.26650870430785,P,P,1,7,7,Professional and business services,,
#D35162,561920,673.3584422457741,376.2080505605256,Convention and Trade Show Organizers,2.5,724.6706508282124,23.192226334079525,P,P,1,7,7,Professional and business services,,
#D35162,561990,676.6890657661659,330.7938169522225,All Other Support Services,2.5,728.583477110796,-22.02725128232417,P,P,1,7,7,Professional and business services,,
#D35162,562111,836.3582453097475,469.8184878946493,Solid Waste Collection ,2.5,887.267289892274,114.77951908155674,P,P,1,7,7,Professional and business services,,
#D35162,562112,824.9469805976653,486.32398710655474,Hazardous Waste Collection ,2.5,872.9399046721144,133.16072758186087,P,P,1,7,7,Professional and business services,,
#D35162,562119,822.8276060217431,477.60694181441016,Other Waste Collection ,2.5,872.1329010060738,122.50585061986088,P,P,1,7,7,Professional and business services,,
#D35162,562211,819.2038857765333,494.1176012866837,Hazardous Waste Treatment and Disposal ,2.5,868.010928302643,142.88266041435074,P,P,1,7,7,Professional and business services,,
#D35162,562212,834.7536451216955,487.4917316121809,Solid Waste Landfill ,2.5,888.2464188198004,135.51616910255467,P,P,1,7,7,Professional and business services,,
#D35162,562213,801.2643304002473,478.278483641184,Solid Waste Combustors and Incinerators ,2.5,848.983625902333,127.57674510981916,P,P,1,7,7,Professional and business services,,
#D35162,562219,610.4333446283816,522.3989207392583,Other Nonhazardous Waste Treatment and Disposal ,2.5,660.3131880882568,169.29389062813718,P,P,1,7,7,Professional and business services,,
#D35162,562910,832.49018586571,478.1488754660605,Remediation Services ,2.5,884.5179833236612,123.89956394032527,P,P,1,7,7,Professional and business services,,
#D35162,562920,830.6140041005555,504.8528934291692,Materials Recovery Facilities ,2.5,885.01159825845,156.0307591933916,P,P,1,7,7,Professional and business services,,
#D35162,562991,828.7278006470083,494.6917242004752,Septic Tank and Related Services ,2.5,879.3692958838665,143.54965755850222,P,P,1,7,7,Professional and business services,,
#D35162,562998,810.7565653058621,477.8995379822741,All Other Miscellaneous Waste Management Services ,2.5,860.2298264129281,121.57951217230035,P,P,1,7,7,Professional and business services,,
#F1866C,611110,830.5224639507825,334.69003562851935,Elementary and Secondary Schools ,2.5,881.3928941784533,-18.378128036883027,E,E,1,1,1,Education and health services,,
#F1866C,611210,824.7967838418308,326.9854320199016,Junior Colleges ,2.5,878.8613796384856,-27.097843713288608,E,E,1,1,1,Education and health services,,
#F1866C,611310,801.736386302321,328.2534961075465,"Colleges, Universities, and Professional Schools ",2.5,849.6060592535156,-23.24123632980075,E,E,1,1,1,Education and health services,,
#F1866C,611410,790.4577293411045,323.25619035652124,Business and Secretarial Schools ,2.5,836.8107985629658,-27.92961499486708,E,E,1,1,1,Education and health services,,
#F1866C,611420,783.5440820397953,310.05400730964146,Computer Training ,2.5,831.5055433565714,-45.04415525626848,E,E,1,1,1,Education and health services,,
#F1866C,611430,820.1324045276994,311.99045223652763,Professional and Management Development Training ,2.5,873.0057048885338,-42.72642172419475,E,E,1,1,1,Education and health services,,
#F1866C,611511,835.2500942729131,368.5644592837926,Cosmetology and Barber Schools ,2.5,885.8512729133763,16.463279305980947,E,E,1,1,1,Education and health services,,
#F1866C,611512,807.4133209248347,578.5495120206488,Flight Training ,2.5,859.4334360666581,224.54026476530154,E,E,1,1,1,Education and health services,,
#F1866C,611513,842.5948902141315,307.8106351641069,Apprenticeship Training ,2.5,892.5514766178766,-47.281804156107285,E,E,1,1,1,Education and health services,,
#F1866C,611519,804.4386169745328,344.44315666480355,Other Technical and Trade Schools ,2.5,850.4406713235386,-5.552284440997438,E,E,1,1,1,Education and health services,,
#F1866C,611610,711.9472987578523,367.7660135318377,Fine Arts Schools ,2.5,761.0758270561852,15.530681910169548,E,E,1,1,1,Education and health services,,
#F1866C,611620,753.4771922531603,373.29987427085985,Sports and Recreation Instruction ,2.5,803.9032532938467,20.205526128607506,E,E,1,1,1,Education and health services,,
#F1866C,611630,798.8508737702873,318.6596652357802,Language Schools ,2.5,844.7580258656502,-33.244949561567005,E,E,1,1,1,Education and health services,,
#F1866C,611691,842.1700653852396,317.84249056204953,Exam Preparation and Tutoring ,2.5,892.918969225669,-33.5510838579507,E,E,1,1,1,Education and health services,,
#F1866C,611692,782.4099582488496,399.93519051290275,Automobile Driving Schools ,2.5,832.3532866571724,46.80087826551516,E,E,1,1,1,Education and health services,,
#F1866C,611699,664.4579347628312,295.65367878855943,All Other Miscellaneous Schools and Instruction ,2.5,713.5667849015215,-56.634423062583025,E,E,1,1,1,Education and health services,,
#F1866C,611710,817.4442193167499,321.28438714263655,Educational Support Services,2.5,869.2027452257822,-31.607284146910697,E,E,1,1,1,Education and health services,,
#F1866C,621111,912.259508093714,422.3507022559847,Offices of Physicians (except Mental Health Specialists) ,2.5,958.8661986539062,72.57262937730839,E,E,1,1,1,Education and health services,,
#F1866C,621112,929.2848856416483,389.6339206209395,"Offices of Physicians, Mental Health Specialists ",2.5,980.2763001752915,40.571820390797946,E,E,1,1,1,Education and health services,,
#F1866C,621210,926.3995012615063,441.4500930214398,Offices of Dentists ,2.5,974.9203142851696,89.92877235917727,E,E,1,1,1,Education and health services,,
#F1866C,621310,921.2526049984497,424.5440111231062,Offices of Chiropractors ,2.5,970.9976358718322,73.5876872709291,E,E,1,1,1,Education and health services,,
#F1866C,621320,933.348061715022,434.6577650819675,Offices of Optometrists,2.5,984.136509970879,79.84181955785664,E,E,1,1,1,Education and health services,,
#F1866C,621330,929.3747740322644,380.12313248789667,Offices of Mental Health Practitioners (except Physicians) ,2.5,982.9422870553734,29.650189400006735,E,E,1,1,1,Education and health services,,
#F1866C,621340,913.6545628678479,414.1756358309843,"Offices of Physical, Occupational and Speech Therapists, and Audiologists ",2.5,966.1902779994061,63.28395531818045,E,E,1,1,1,Education and health services,,
#F1866C,621391,929.606676363565,419.28229247368023,Offices of Podiatrists ,2.5,981.4044864447063,64.12278282090443,E,E,1,1,1,Education and health services,,
#F1866C,621399,903.5251553916709,413.55964020866946,Offices of All Other Miscellaneous Health Practitioners ,2.5,950.6385625347496,61.46163400082132,E,E,1,1,1,Education and health services,,
#F1866C,621410,955.7441411282055,370.1599715629096,Family Planning Centers ,2.5,1009.0743578614728,17.701296177390354,E,E,1,1,1,Education and health services,,
#F1866C,621420,927.019857773498,362.5463680150976,Outpatient Mental Health and Substance Abuse Centers ,2.5,975.9801875082945,3.5890662062975256,E,E,1,1,1,Education and health services,,
#F1866C,621491,911.1962102819883,396.2421195658756,HMO Medical Centers ,2.5,965.4405735841821,42.51354226243443,E,E,1,1,1,Education and health services,,
#F1866C,621492,951.4367726941618,396.4401935304418,Kidney Dialysis Centers ,2.5,1001.2850397009636,46.67246033808873,E,E,1,1,1,Education and health services,,
#F1866C,621493,965.1368240336099,383.4045987786638,Freestanding Ambulatory Surgical and Emergency Centers ,2.5,1018.6648902091425,29.404579346963317,E,E,1,1,1,Education and health services,,
#F1866C,621498,892.1610747941867,397.89399204169735,All Other Outpatient Care Centers ,2.5,941.334400108251,44.172028053609914,E,E,1,1,1,Education and health services,,
#F1866C,621511,945.5529485244027,437.0627901847479,Medical Laboratories ,2.5,997.8023499140741,84.9950416435631,E,E,1,1,1,Education and health services,,
#F1866C,621512,956.0404157010416,387.9616729219043,Diagnostic Imaging Centers ,2.5,1008.6695875033283,36.7836558432663,E,E,1,1,1,Education and health services,,
#F1866C,621610,911.5757124548114,387.4735093079736,Home Health Care Services,2.5,956.7344948674371,32.41802330027238,E,E,1,1,1,Education and health services,,
#F1866C,621910,956.5953850739685,360.18034446234043,Ambulance Services ,2.5,1006.6802718336556,4.784957664294598,E,E,1,1,1,Education and health services,,
#F1866C,621991,945.9426609493047,387.5251551568664,Blood and Organ Banks ,2.5,992.2033343282899,35.66114570386817,E,E,1,1,1,Education and health services,,
#F1866C,621999,878.6050794252085,395.6561877678926,All Other Miscellaneous Ambulatory Health Care Services ,2.5,926.8436358271927,39.88225117188794,E,E,1,1,1,Education and health services,,
#F1866C,622110,911.5603836872958,405.6706048706946,General Medical and Surgical Hospitals ,2.5,959.8380568677497,54.739579564181085,E,E,1,1,1,Education and health services,,
#F1866C,622210,923.7084720106252,372.4418411125404,Psychiatric and Substance Abuse Hospitals ,2.5,973.7123067535397,17.317907986390036,E,E,1,1,1,Education and health services,,
#F1866C,622310,921.489002472594,404.41512594663584,Specialty (except Psychiatric and Substance Abuse) Hospitals ,2.5,973.9493126238084,50.42000333789212,E,E,1,1,1,Education and health services,,
#F1866C,623110,901.9244392097239,397.10139786450475,Nursing Care Facilities (Skilled Nursing Facilities) ,2.5,951.5054999036247,42.67049577590108,E,E,1,1,1,Education and health services,,
#F1866C,623210,936.9075247666605,361.63375772798577,Residential Intellectual and Developmental Disability Facilities ,2.5,988.4871343281609,3.4350893901361115,E,E,1,1,1,Education and health services,,
#F1866C,623220,933.096227835088,370.6728223578448,Residential Mental Health and Substance Abuse Facilities ,2.5,982.3030090114917,17.62814104890004,E,E,1,1,1,Education and health services,,
#F1866C,623311,920.9977098509055,384.2382942283181,Continuing Care Retirement Communities ,2.5,970.5149985367464,31.972956269844914,E,E,1,1,1,Education and health services,,
#F1866C,623312,914.0808105862826,377.21847690549805,Assisted Living Facilities for the Elderly ,2.5,960.574408637137,23.387203293675505,E,E,1,1,1,Education and health services,,
#F1866C,623990,865.0866275782977,357.86797220215954,Other Residential Care Facilities ,2.5,915.0150849611853,4.77675494369338,E,E,1,1,1,Education and health services,,
#F1866C,624110,889.2165248469407,350.1577351753864,Child and Youth Services ,2.5,939.5738798712001,-2.8406201113612193,E,E,1,1,1,Education and health services,,
#F1866C,624120,917.3322659114111,364.71772918273246,Services for the Elderly and Persons with Disabilities ,2.5,963.9994913373131,9.413989113755722,E,E,1,1,1,Education and health services,,
#F1866C,624190,835.8740925162926,344.6509268085635,Other Individual and Family Services ,2.5,889.54399581801,-7.23350629188989,E,E,1,1,1,Education and health services,,
#F1866C,624210,844.0408545811149,412.41316248883703,Community Food Services ,2.5,895.0965510850706,61.473899239816205,E,E,1,1,1,Education and health services,,
#F1866C,624221,888.1773157196322,325.3645830573975,Temporary Shelters ,2.5,936.8620130640587,-25.783373437314253,E,E,1,1,1,Education and health services,,
#F1866C,624229,869.5098096492264,287.2018730470175,Other Community Housing Services ,2.5,920.468170569032,-63.92999687331007,E,E,1,1,1,Education and health services,,
#F1866C,624230,945.7561838645189,368.89907861752704,Emergency and Other Relief Services ,2.5,996.91702717186,13.13058489821757,E,E,1,1,1,Education and health services,,
#F1866C,624310,807.1445456532546,334.66690468823833,Vocational Rehabilitation Services ,2.5,856.1655773462151,-18.243384565598465,E,E,1,1,1,Education and health services,,
#F1866C,624410,816.7762297906211,349.26645570775725,Child Day Care Services ,2.5,862.4504344625294,0.2658138417107576,E,E,1,1,1,Education and health services,,
#93CFD0,711110,742.6281702642001,332.1775919965404,Theater Companies and Dinner Theaters ,2.5,793.8257706702364,-20.177384110848134,L,L,1,3,3,Leisure and hospitality,,
#93CFD0,711120,737.0601668278024,371.3033261802336,Dance Companies ,2.5,787.44200257784,22.26944713560966,L,L,1,3,3,Leisure and hospitality,,
#93CFD0,711130,729.241672706904,323.82248220538713,Musical Groups and Artists ,2.5,782.4598453503903,-31.173966015211015,L,L,1,3,3,Leisure and hospitality,,
#93CFD0,711190,696.4210858727603,352.6884682689682,Other Performing Arts Companies ,2.5,747.9891409545301,-0.5018871918189337,L,L,1,3,3,Leisure and hospitality,,
#93CFD0,711211,775.8287004592133,344.35211011056634,Sports Teams and Clubs ,2.5,824.9515310442924,-10.296240802761144,L,L,1,3,3,Leisure and hospitality,,
#93CFD0,711212,718.6867257775137,389.65585809225735,Racetracks ,2.5,770.9138826210052,34.57801223395906,L,L,1,3,3,Leisure and hospitality,,
#93CFD0,711219,692.2330292813873,361.890478038576,Other Spectator Sports ,2.5,742.5423212506674,12.354686340509373,L,L,1,3,3,Leisure and hospitality,,
#93CFD0,711310,633.1273115289158,323.49224807181656,"Promoters of Performing Arts, Sports, and Similar Events with Facilities ",2.5,678.5885660394165,-27.98826781867349,L,L,1,3,3,Leisure and hospitality,,
#93CFD0,711320,682.9329485007883,359.42065222924265,"Promoters of Performing Arts, Sports, and Similar Events without Facilities ",2.5,730.5807971189003,7.217575007961173,L,L,1,3,3,Leisure and hospitality,,
#93CFD0,711410,724.2660844595637,342.0933363130312,"Agents and Managers for Artists, Athletes, Entertainers, and Other Public Figures",2.5,773.2322358058791,-11.104731859683662,L,L,1,3,3,Leisure and hospitality,,
#93CFD0,711510,684.1550732927253,345.7912992193992,"Independent Artists, Writers, and Performers ",2.5,732.894606949405,-7.794384067894789,L,L,1,3,3,Leisure and hospitality,,
#93CFD0,712110,743.2769258458821,363.12859273582166,Museums ,2.5,793.8947043789228,9.409385315212726,L,L,1,3,3,Leisure and hospitality,,
#93CFD0,712120,862.5890774523191,336.62111404296905,Historical Sites,2.5,912.2581261062091,-16.884669028640573,L,L,1,3,3,Leisure and hospitality,,
#93CFD0,712130,729.1690793436322,354.3075792425188,Zoos and Botanical Gardens ,2.5,779.3028889688707,-0.715496181728283,L,L,1,3,3,Leisure and hospitality,,
#93CFD0,712190,751.2966135880588,401.4047829017747,Nature Parks and Other Similar Institutions,2.5,801.1156703568741,45.5505061031728,L,L,1,3,3,Leisure and hospitality,,
#93CFD0,713110,733.682775532608,362.7993555650254,Amusement and Theme Parks ,2.5,781.1349041409123,12.414007754769248,L,L,1,3,3,Leisure and hospitality,,
#93CFD0,713120,668.1714890778959,390.3344013971019,Amusement Arcades,2.5,714.4602444867378,34.405234018309905,L,L,1,3,3,Leisure and hospitality,,
#93CFD0,713210,696.11633524856,402.0767796854015,Casinos (except Casino Hotels),2.5,747.8312248315674,51.46654034654974,L,L,1,3,3,Leisure and hospitality,,
#93CFD0,713290,670.3434904048268,417.1183161066079,Other Gambling Industries ,2.5,717.9558297606602,66.99617464465136,L,L,1,3,3,Leisure and hospitality,,
#93CFD0,713910,723.0350321076999,398.8630492798182,Golf Courses and Country Clubs,2.5,777.2389165496454,46.96626981194456,L,L,1,3,3,Leisure and hospitality,,
#93CFD0,713920,776.0818833108783,414.14819280905505,Skiing Facilities,2.5,824.0529266963131,60.52354082007315,L,L,1,3,3,Leisure and hospitality,,
#93CFD0,713930,731.8454129326576,529.5126963225373,Marinas,2.5,783.9588356502968,177.09806945136853,L,L,1,3,3,Leisure and hospitality,,
#93CFD0,713940,750.9611346769892,356.8753701476013,Fitness and Recreational Sports Centers ,2.5,803.6745464390647,2.320304990410947,L,L,1,3,3,Leisure and hospitality,,
#93CFD0,713950,712.6451024685136,397.4778515354331,Bowling Centers,2.5,762.2099067110684,44.407101127813824,L,L,1,3,3,Leisure and hospitality,,
#93CFD0,713990,703.5730645165054,393.65561030222864,All Other Amusement and Recreation Industries ,2.5,753.1572030961692,37.1632109677248,L,L,1,3,3,Leisure and hospitality,,
#93CFD0,721110,566.5950204569095,402.1147706006132,Hotels (except Casino Hotels) and Motels ,2.5,619.2602282939656,49.72501686472937,L,L,1,3,3,Leisure and hospitality,,
#93CFD0,721120,720.4561938514346,408.4717249468377,Casino Hotels,2.5,768.484149798655,56.93057581242391,L,L,1,3,3,Leisure and hospitality,,
#93CFD0,721191,735.8670210922836,421.87911263917124,Bed-and-Breakfast Inns ,2.5,784.0506114346156,69.80561956231459,L,L,1,3,3,Leisure and hospitality,,
#93CFD0,721199,678.6299728094283,402.9220449873334,All Other Traveler Accommodation ,2.5,730.4013590154862,51.62430459821854,L,L,1,3,3,Leisure and hospitality,,
#93CFD0,721211,684.5621169716903,424.0255244875272,RV (Recreational Vehicle) Parks and Campgrounds ,2.5,733.2053569424244,71.87193171472445,L,L,1,3,3,Leisure and hospitality,,
#93CFD0,721214,788.6385710944811,371.0344778502588,Recreational and Vacation Camps (except Campgrounds) ,2.5,838.5779275335667,17.900259987028765,L,L,1,3,3,Leisure and hospitality,,
#93CFD0,721310,624.7648165806693,410.7145904246641,"Rooming and Boarding Houses, Dormitories, and Workers' Camps ",2.5,674.6410084313846,57.57674241003912,L,L,1,3,3,Leisure and hospitality,,
#93CFD0,722310,745.1138016945496,419.4983412698093,Food Service Contractors,2.5,797.1328307151007,69.98664349777084,L,L,1,3,3,Leisure and hospitality,,
#93CFD0,722320,680.6975123370254,393.378420965873,Caterers,2.5,728.889130282833,38.324882238667094,L,L,1,3,3,Leisure and hospitality,,
#93CFD0,722330,688.075226715302,399.98850520608266,Mobile Food Services,2.5,741.2346357426914,43.5130654399067,L,L,1,3,3,Leisure and hospitality,,
#93CFD0,722410,487.3329468280004,404.6866391271518,Drinking Places (Alcoholic Beverages) ,2.5,539.3007970289635,50.195047365690584,L,L,1,3,3,Leisure and hospitality,,
#93CFD0,722511,478.99944722333095,398.086866503022,Full-Service Restaurants ,2.5,526.894676711049,44.03161986124561,L,L,1,3,3,Leisure and hospitality,,
#93CFD0,722513,671.7758855097856,408.8732548959577,Limited-Service Restaurants ,2.5,722.0102435858042,58.173899744525414,L,L,1,3,3,Leisure and hospitality,,
#93CFD0,722514,667.4795953979864,399.927520954966,"Cafeterias, Grill Buffets, and Buffets ",2.5,715.8437731903263,45.93871801264459,L,L,1,3,3,Leisure and hospitality,,
#93CFD0,722515,701.7277069307421,422.2792051378781,Snack and Nonalcoholic Beverage Bars ,2.5,752.9823766799852,67.98187399521159,L,L,1,3,3,Leisure and hospitality,,
#6A6AAD,811111,653.7575646650921,588.7524800243386,General Automotive Repair ,2.5,705.6164298321155,238.30563707769505,O,O,1,6,6,Other,,
#6A6AAD,811112,681.5304857459165,613.0154861940788,Automotive Exhaust System Repair ,2.5,735.1202076365671,257.77892542479645,O,O,1,6,6,Other,,
#6A6AAD,811113,683.2581702699727,622.5740616279809,Automotive Transmission Repair ,2.5,734.3687654949604,271.22771716555,O,O,1,6,6,Other,,
#6A6AAD,811118,649.0173944676892,596.446197220702,Other Automotive Mechanical and Electrical Repair and Maintenance ,2.5,699.7347236758716,248.12382568838234,O,O,1,6,6,Other,,
#6A6AAD,811121,635.5934614828317,578.6952025149459,"Automotive Body, Paint, and Interior Repair and Maintenance ",2.5,686.023004563689,223.8977894361599,O,O,1,6,6,Other,,
#6A6AAD,811122,669.0116288615728,626.6988296488485,Automotive Glass Replacement Shops ,2.5,717.9204523602688,277.2041738771074,O,O,1,6,6,Other,,
#6A6AAD,811191,670.0623140630034,610.4297127324016,Automotive Oil Change and Lubrication Shops ,2.5,717.9734391885869,255.58234761160932,O,O,1,6,6,Other,,
#6A6AAD,811192,660.1510883120691,582.6408053435295,Car Washes ,2.5,714.0247850075056,230.002179645247,O,O,1,6,6,Other,,
#6A6AAD,811198,640.5386259918502,591.6595694118885,All Other Automotive Repair and Maintenance ,2.5,687.700761015908,241.73295125996935,O,O,1,6,6,Other,,
#6A6AAD,811211,582.0898476449337,375.75960094865394,Consumer Electronics Repair and Maintenance ,2.5,632.1836274428703,21.511055600477373,O,O,1,6,6,Other,,
#6A6AAD,811212,574.0913588809409,354.9715657579694,Computer and Office Machine Repair and Maintenance ,2.5,623.1691939932593,1.3546636910184067,O,O,1,6,6,Other,,
#6A6AAD,811213,651.6591617969265,348.57968154641844,Communication Equipment Repair and Maintenance ,2.5,701.4004984114805,-5.102669742992459,O,O,1,6,6,Other,,
#6A6AAD,811219,585.2239651603174,511.04165845495544,Other Electronic and Precision Equipment Repair and Maintenance ,2.5,636.7584958778884,158.8020917913608,O,O,1,6,6,Other,,
#6A6AAD,811310,729.2535770087303,633.216146070975,Commercial and Industrial Machinery and Equipment (except Automotive and Electronic) Repair and Maintenance ,2.5,779.1785415456764,280.1483948041954,O,O,1,6,6,Other,,
#6A6AAD,811411,635.3579673107236,492.49425494505294,Home and Garden Equipment Repair and Maintenance ,2.5,684.3972194504394,135.49692507470837,O,O,1,6,6,Other,,
#6A6AAD,811412,576.4138601472134,506.3911069754213,Appliance Repair and Maintenance ,2.5,624.6208870425554,152.41023984587014,O,O,1,6,6,Other,,
#6A6AAD,811420,414.6474589983375,685.5339312756404,Reupholstery and Furniture Repair,2.5,468.65298402839466,328.8165456644896,O,O,1,6,6,Other,,
#6A6AAD,811430,553.990958682347,577.2862929349886,Footwear and Leather Goods Repair,2.5,603.8646796656369,224.20170212972664,O,O,1,6,6,Other,,
#6A6AAD,811490,611.3930601179578,482.68062822620504,Other Personal and Household Goods Repair and Maintenance ,2.5,662.5031173151611,130.86839032424305,O,O,1,6,6,Other,,
#6A6AAD,812111,575.1018528912306,459.19340369217525,Barber Shops ,2.5,623.9513262502796,106.63874078997884,O,O,1,6,6,Other,,
#6A6AAD,812112,582.0992310423273,442.01127201997696,Beauty Salons ,2.5,631.8958534020619,86.50961688664427,O,O,1,6,6,Other,,
#6A6AAD,812113,835.338927362975,408.58908859675927,Nail Salons ,2.5,883.7073955788379,53.401965411581415,O,O,1,6,6,Other,,
#6A6AAD,812191,884.3565651926212,404.15986300048377,Diet and Weight Reducing Centers ,2.5,932.8750177731008,52.273328970355664,O,O,1,6,6,Other,,
#6A6AAD,812199,850.8141664682445,406.1295631050458,Other Personal Care Services ,2.5,902.5009368736174,51.018557937225594,O,O,1,6,6,Other,,
#6A6AAD,812210,787.8300133952451,469.5906257913586,Funeral Homes and Funeral Services ,2.5,838.0216390492482,116.54197100878258,O,O,1,6,6,Other,,
#6A6AAD,812220,833.7573844477147,418.2093097848388,Cemeteries and Crematories ,2.5,882.4416315987705,66.96224596926218,O,O,1,6,6,Other,,
#6A6AAD,812310,662.195287821204,467.6567885511478,Coin-Operated Laundries and Drycleaners ,2.5,710.3225145856031,113.01211351136492,O,O,1,6,6,Other,,
#6A6AAD,812320,653.1932286967799,477.39971624862073,Drycleaning and Laundry Services (except Coin-Operated) ,2.5,700.249882272123,124.02576544048304,O,O,1,6,6,Other,,
#6A6AAD,812331,658.7679324604553,485.42291720879433,Linen Supply ,2.5,707.5267418308745,135.55708132343239,O,O,1,6,6,Other,,
#6A6AAD,812332,681.6636674356272,493.7347254302862,Industrial Launderers ,2.5,730.9227391425012,141.68916283617114,O,O,1,6,6,Other,,
#6A6AAD,812910,749.7278320702407,410.7013862371007,Pet Care (except Veterinary) Services ,2.5,800.288409809155,56.82401805827892,O,O,1,6,6,Other,,
#6A6AAD,812921,630.8193207747111,333.0382700638056,Photofinishing Laboratories (except One-Hour) ,2.5,684.3240040578472,-17.07120789864023,O,O,1,6,6,Other,,
#6A6AAD,812930,688.0708728756467,552.7328443008762,Parking Lots and Garages ,2.5,736.7761692681058,200.4585860393131,O,O,1,6,6,Other,,
#6A6AAD,812990,598.7619564626632,413.9322863888844,All Other Personal Services ,2.5,648.4495873339243,61.40746331172084,O,O,1,6,6,Other,,
#6A6AAD,813110,828.4213595865791,355.12229390532383,Religious Organizations ,2.5,878.3784515467801,5.265030243570969,O,O,1,6,6,Other,,
#6A6AAD,813211,785.85891497395,285.117960919152,Grantmaking Foundations ,2.5,836.4929124643605,-66.71326947222742,O,O,1,6,6,Other,,
#6A6AAD,813212,949.018510806996,378.46888298724326,Voluntary Health Organizations ,2.5,999.8922977386743,26.546927503078468,O,O,1,6,6,Other,,
#6A6AAD,813219,863.726308620243,279.164261405765,Other Grantmaking and Giving Services ,2.5,913.9764264254815,-75.93534182516541,O,O,1,6,6,Other,,
#6A6AAD,813312,874.5846321420602,344.87043472494247,"Environment, Conservation and Wildlife Organizations ",2.5,924.9715416421865,-7.842118076227005,O,O,1,6,6,Other,,
#6A6AAD,813319,826.4461839753775,345.67392737848144,Other Social Advocacy Organizations ,2.5,879.0015587891883,-6.881658992737068,O,O,1,6,6,Other,,
#6A6AAD,813410,815.2966748031256,339.37142792556426,Civic and Social Organizations ,2.5,865.9446503211169,-13.965317205834413,O,O,1,6,6,Other,,
#6A6AAD,813910,807.6023297433765,321.1222615211372,Business Associations ,2.5,855.553644519296,-32.74807603284105,O,O,1,6,6,Other,,
#6A6AAD,813920,805.5353992617341,311.0682069955096,Professional Organizations ,2.5,857.828558176129,-45.873534791530204,O,O,1,6,6,Other,,
#6A6AAD,813930,818.8782049547337,302.49673865872137,Labor Unions and Similar Labor Organizations ,2.5,869.9541749209768,-54.72226949523648,O,O,1,6,6,Other,,
#6A6AAD,813940,861.9823494939451,304.16409602461937,Political Organizations ,2.5,911.9415292349429,-49.00343439071004,O,O,1,6,6,Other,,
#6A6AAD,813990,792.8069585002111,311.3790845479567,"Other Similar Organizations (except Business, Professional, Labor, and Political Organizations) ",2.5,843.70486077054,-46.49614098901242,O,O,1,6,6,Other,,
#6A6AAD,814110,757.1476283913728,316.14173171164543,Private Households,2.5,806.6279252407153,-36.90376130339838,O,O,1,6,6,Other,,
#6A6AAD,921110,924.6083430014664,322.3030989646296,Executive Offices ,2.5,975.7365611351693,-26.312144004458606,O,O,1,6,6,Other,,
#6A6AAD,921120,922.0721099276909,306.6569741112658,Legislative Bodies ,2.5,970.7340402411219,-47.97196118647906,O,O,1,6,6,Other,,
#6A6AAD,921130,916.9589711287604,312.7652676191356,Public Finance Activities ,2.5,966.5453666484416,-40.578275956059805,O,O,1,6,6,Other,,
#6A6AAD,921140,925.0779022642733,294.36786759671656,"Executive and Legislative Offices, Combined ",2.5,973.4886099672611,-58.91394563486086,O,O,1,6,6,Other,,
#6A6AAD,921150,898.3725279692186,301.88660803553523,American Indian and Alaska Native Tribal Governments ,2.5,946.7298921505819,-53.588329872228314,O,O,1,6,6,Other,,
#6A6AAD,921190,928.2719261793126,314.1989103533576,Other General Government Support ,2.5,976.3120794097653,-35.80575478602654,O,O,1,6,6,Other,,
#6A6AAD,922110,939.1879299169269,286.45955944778433,Courts ,2.5,991.9246914518125,-70.61118117908653,O,O,1,6,6,Other,,
#6A6AAD,922120,947.3811689202785,308.01080297250115,Police Protection ,2.5,1002.9180072308524,-44.665216554030565,O,O,1,6,6,Other,,
#6A6AAD,922130,923.5330938704628,284.5989363955286,Legal Counsel and Prosecution ,2.5,971.9013687819103,-73.21420222202295,O,O,1,6,6,Other,,
#6A6AAD,922140,944.9754636597003,296.38551557176606,Correctional Institutions ,2.5,999.2351459125779,-59.247477718969066,O,O,1,6,6,Other,,
#6A6AAD,922150,934.7197590351709,294.58283897184737,Parole Offices and Probation Offices ,2.5,982.4684099577199,-63.09828797126482,O,O,1,6,6,Other,,
#6A6AAD,922160,934.7591840669373,321.88221884006055,Fire Protection ,2.5,987.345648741519,-26.910392313985405,O,O,1,6,6,Other,,
#6A6AAD,922190,939.5860277755572,313.91927043388716,"Other Justice, Public Order, and Safety Activities ",2.5,994.1895332323498,-36.36623837891013,O,O,1,6,6,Other,,
#6A6AAD,923110,877.2214022114399,325.6649242870748,Administration of Education Programs ,2.5,925.3797473859847,-27.85733378558254,O,O,1,6,6,Other,,
#6A6AAD,923120,932.6129381327733,336.76202660968477,Administration of Public Health Programs ,2.5,982.3246005807002,-14.849800510370754,O,O,1,6,6,Other,,
#6A6AAD,923130,915.5699830420865,322.92789337678767,"Administration of Human Resource Programs (except Education, Public Health, and Veterans' Affairs Programs) ",2.5,965.399517887627,-30.58343503820585,O,O,1,6,6,Other,,
#6A6AAD,923140,909.6807252440115,342.7807134110911,Administration of Veterans' Affairs ,2.5,959.2733837902255,-6.292139645567636,O,O,1,6,6,Other,,
#6A6AAD,924110,841.8949393159594,461.9671206292507,Administration of Air and Water Resource and Solid Waste Management Programs ,2.5,894.7685706791693,107.5271464648733,O,O,1,6,6,Other,,
#6A6AAD,924120,896.2789335497094,320.3058476074397,Administration of Conservation Programs ,2.5,946.1526138826213,-33.16348617509674,O,O,1,6,6,Other,,
#6A6AAD,925110,890.6885883564069,296.15173441895206,Administration of Housing Programs ,2.5,937.9753510432497,-58.96042485976655,O,O,1,6,6,Other,,
#6A6AAD,925120,908.9130756536294,307.07516622133477,Administration of Urban Planning and Community and Rural Development ,2.5,960.3772764242758,-45.20650504754317,O,O,1,6,6,Other,,
#6A6AAD,926110,933.4101380334478,307.7179995896707,Administration of General Economic Programs ,2.5,985.7741810014841,-42.35515754092483,O,O,1,6,6,Other,,
#6A6AAD,926120,910.4850704821195,331.8677826824094,Regulation and Administration of Transportation Programs ,2.5,962.2188898787275,-19.952653427738966,O,O,1,6,6,Other,,
#6A6AAD,926130,905.8758837452618,323.02061802946713,"Regulation and Administration of Communications, Electric, Gas, and Other Utilities ",2.5,951.0870412026612,-26.399739634209034,O,O,1,6,6,Other,,
#6A6AAD,926140,900.4870131063246,311.3951282924318,Regulation of Agricultural Marketing and Commodities ,2.5,947.7303923786465,-43.775935276862704,O,O,1,6,6,Other,,
#6A6AAD,926150,915.5177853492806,300.38779124169645,"Regulation, Licensing, and Inspection of Miscellaneous Commercial Sectors ",2.5,963.3671920954756,-57.0328307989963,O,O,1,6,6,Other,,
#6A6AAD,927110,852.6202733741542,614.5517098544834,Space Research and Technology ,2.5,902.5816746227812,261.4574734081332,O,O,1,6,6,Other,,
#6A6AAD,928110,940.3303897700976,303.0228638960143,National Security ,2.5,991.4360556792013,-53.58883772855005,O,O,1,6,6,Other,,
#6A6AAD,928120,927.24728357614,302.16292354848434,International Affairs ,2.5,976.66811061458,-51.68802072313733,O,O,1,6,6,Other,,
